{"type":"FeatureCollection","features":[{"type":"Feature","id":"river-system-001","geometry":{"type":"LineString","coordinates":[[30.860119000000054,40.06275050000005],[30.858285000000024,40.063845800000024]]},"properties":{"id":"river-system-001","entityId":"river-system-001","entityType":"hesRiverSystem","name":"Sakarya","riverName":"Sakarya","riverSystemId":"river-system-001","riverCode":"TR12NH252473","riverCodes":["TR12NH252473","TR12NH251570","TR12NH252361","TR12NH202724","TR12NH252793"],"hesIds":["hes177-073","hes177-080","hes177-097","hes177-140","hes177-174"],"hesCount":5,"installedPowerMw":612.9,"basinId":"12","basinIds":["12"],"geometrySource":"TATUS Layer 8 focused corridor","matchMethod":"workbook-pre-mapping","confidence":"high","lengthKm":0.19797186684974125,"totalLengthKm":0.19797186684974125,"segmentCount":1,"candidateSegmentCount":5,"omittedDisconnectedSegmentCount":4,"disconnectedComponents":1,"corridorHesCount":2,"geoglowsLocalRiverIds":["211235","173465","189738","173238"],"geoglowsRiverIds":[220159419,220195202,220181389,220103009],"geoglowsMatchMethod":"same-basin-nearest-corridor","geoglowsMatchDistanceKm":52.22,"representativeLocalRiverId":"211235","representativeGeoglowsRiverId":220159419,"hes177":true}},{"type":"Feature","id":"river-system-004","geometry":{"type":"MultiLineString","coordinates":[[[37.754,40.143],[37.752,40.145]],[[37.752,40.145],[37.749,40.146]],[[37.749,40.146],[37.749,40.151]],[[37.749,40.151],[37.748,40.151]],[[37.741,40.155],[37.73,40.162]],[[37.73,40.162],[37.729,40.167]],[[37.705,40.166],[37.704,40.166]],[[37.71,40.166],[37.71,40.166]],[[37.71,40.166],[37.705,40.166]],[[37.713,40.167],[37.71,40.166]],[[37.713,40.167],[37.713,40.167]],[[37.729,40.167],[37.728,40.167]],[[37.714,40.167],[37.713,40.167]],[[37.728,40.167],[37.724,40.168]],[[37.722,40.168],[37.719,40.168]],[[37.719,40.168],[37.717,40.168]],[[37.717,40.168],[37.714,40.167]],[[37.724,40.168],[37.722,40.168]],[[37.631,40.203],[37.63,40.205]],[[37.63,40.205],[37.63,40.205]]]},"properties":{"id":"river-system-004","entityId":"river-system-004","entityType":"hesRiverSystem","name":"Yeşilırmak","riverName":"Yeşilırmak","riverSystemId":"river-system-004","riverCode":"TR14NH181434","riverCodes":["TR14NH181434","TR14NH076221","TR14NH181812","TR14NH179700","TR14NH088181","TR14NH100227","TR14NH183171","TR14NH105801"],"hesIds":["hes177-010","hes177-046","hes177-083","hes177-109","hes177-115","hes177-136","hes177-148","hes177-163","hes177-151","hes177-159"],"hesCount":10,"installedPowerMw":1037.04,"basinId":"14","basinIds":["14"],"geometrySource":"TATUS named river corridor","matchMethod":"workbook-pre-mapping","confidence":"high","lengthKm":5.404398492298532,"totalLengthKm":5.404398492298532,"segmentCount":20,"candidateSegmentCount":30,"omittedDisconnectedSegmentCount":10,"disconnectedComponents":1,"corridorHesCount":2,"geoglowsLocalRiverIds":[],"geoglowsRiverIds":[],"geoglowsMatchMethod":"unmatched","geoglowsMatchDistanceKm":null,"representativeLocalRiverId":null,"representativeGeoglowsRiverId":null,"hes177":true}},{"type":"Feature","id":"river-system-005","geometry":{"type":"MultiLineString","coordinates":[[[35.841,41.462],[35.84,41.466]],[[35.84,41.466],[35.834,41.475]],[[35.834,41.475],[35.835,41.483]],[[35.835,41.483],[35.837,41.499]],[[35.837,41.499],[35.85,41.524]],[[35.85,41.524],[35.872,41.554]],[[35.872,41.554],[35.913,41.62],[35.913,41.652]],[[35.913,41.652],[35.916,41.658]],[[35.916,41.658],[35.957,41.736]]]},"properties":{"id":"river-system-005","entityId":"river-system-005","entityType":"hesRiverSystem","name":"Kızılırmak","riverName":"Kızılırmak","riverSystemId":"river-system-005","riverCode":"TR15NH395154","riverCodes":["TR15NH395154","TR15NH020006","TR15NH124224","TR15NH405473","TR15NH400050","TR15NH091428","TR15NH406125","TR15NH273178","TR15NH028913"],"hesIds":["hes177-014","hes177-033","hes177-051","hes177-058","hes177-084","hes177-090","hes177-098","hes177-132","hes177-171","hes177-107"],"hesCount":10,"installedPowerMw":1493.7,"basinId":"15","basinIds":["15"],"geometrySource":"TATUS named river corridor","matchMethod":"workbook-pre-mapping","confidence":"high","lengthKm":32.72017786917522,"totalLengthKm":32.72017786917522,"segmentCount":9,"candidateSegmentCount":1174,"omittedDisconnectedSegmentCount":1165,"disconnectedComponents":1,"corridorHesCount":2,"geoglowsLocalRiverIds":["340111"],"geoglowsRiverIds":[220097357],"geoglowsMatchMethod":"same-basin-nearest-corridor","geoglowsMatchDistanceKm":0.0,"representativeLocalRiverId":"340111","representativeGeoglowsRiverId":220097357,"hes177":true}},{"type":"Feature","id":"river-system-006","geometry":{"type":"MultiLineString","coordinates":[[[34.497,37.032],[34.497,37.037]],[[34.497,37.037],[34.497,37.043]],[[34.497,37.043],[34.5,37.046]],[[34.5,37.046],[34.505,37.049]],[[34.606,37.048],[34.61,37.05]],[[34.603,37.048],[34.606,37.048]],[[34.603,37.048],[34.603,37.048]],[[34.615,37.049],[34.616,37.049]],[[34.616,37.049],[34.619,37.048]],[[34.528,37.049],[34.528,37.049]],[[34.505,37.049],[34.506,37.049]],[[34.506,37.049],[34.508,37.051]],[[34.511,37.05],[34.511,37.05]],[[34.511,37.05],[34.526,37.049]],[[34.526,37.049],[34.528,37.049]],[[34.61,37.05],[34.615,37.049]],[[34.508,37.051],[34.511,37.05]],[[34.602,37.053],[34.603,37.048]]]},"properties":{"id":"river-system-006","entityId":"river-system-006","entityType":"hesRiverSystem","name":"DELİÇAY","riverName":"DELİÇAY","riverSystemId":"river-system-006","riverCode":null,"riverCodes":[],"hesIds":["hes177-087"],"hesCount":1,"installedPowerMw":70.0,"basinId":"17","basinIds":["17"],"geometrySource":"TATUS named river corridor","matchMethod":"tatus-station-suadi","confidence":"medium","lengthKm":6.463118614945276,"totalLengthKm":6.463118614945276,"segmentCount":18,"candidateSegmentCount":18,"omittedDisconnectedSegmentCount":0,"disconnectedComponents":1,"corridorHesCount":1,"geoglowsLocalRiverIds":["387104","386167"],"geoglowsRiverIds":[210323756,210351214],"geoglowsMatchMethod":"same-basin-nearest-corridor","geoglowsMatchDistanceKm":34.46,"representativeLocalRiverId":"387104","representativeGeoglowsRiverId":210323756,"hes177":true}},{"type":"Feature","id":"river-system-008","geometry":{"type":"MultiLineString","coordinates":[[[32.876,36.172],[32.878,36.173]],[[32.884,36.173],[32.886,36.173]],[[32.884,36.173],[32.884,36.173]],[[32.879,36.173],[32.881,36.173]],[[32.891,36.173],[32.894,36.176]],[[32.878,36.173],[32.879,36.173]],[[32.881,36.173],[32.884,36.173]],[[32.889,36.173],[32.891,36.173]],[[32.886,36.173],[32.886,36.174]],[[32.886,36.174],[32.888,36.174]],[[32.888,36.174],[32.889,36.173]],[[32.894,36.176],[32.894,36.177]],[[32.894,36.177],[32.895,36.176]]]},"properties":{"id":"river-system-008","entityId":"river-system-008","entityType":"hesRiverSystem","name":"Güney","riverName":"Güney","riverSystemId":"river-system-008","riverCode":"TR17NH005806","riverCodes":["TR17NH005806"],"hesIds":["hes177-008"],"hesCount":1,"installedPowerMw":32.0,"basinId":"17","basinIds":["17"],"geometrySource":"TATUS named river corridor","matchMethod":"tatus-spatial","confidence":"medium","lengthKm":2.2251972527937043,"totalLengthKm":2.2251972527937043,"segmentCount":13,"candidateSegmentCount":29,"omittedDisconnectedSegmentCount":16,"disconnectedComponents":1,"corridorHesCount":1,"geoglowsLocalRiverIds":["379566"],"geoglowsRiverIds":[210112582],"geoglowsMatchMethod":"same-basin-nearest-corridor","geoglowsMatchDistanceKm":46.42,"representativeLocalRiverId":"379566","representativeGeoglowsRiverId":210112582,"hes177":true}},{"type":"Feature","id":"river-system-011","geometry":{"type":"LineString","coordinates":[[35.52996500000006,37.562721700000054],[35.529458000000034,37.560788700000046],[35.52828600000004,37.560403500000064]]},"properties":{"id":"river-system-011","entityId":"river-system-011","entityType":"hesRiverSystem","name":"Seyhan","riverName":"Seyhan","riverSystemId":"river-system-011","riverCode":"TR18NH007294","riverCodes":["TR18NH007294","TR18NH107582","TR18NH108217","TR18NH029650","TR18NH108081","TR18NH107778","TR18NH110263","TR18NH109807"],"hesIds":["hes177-048","hes177-070","hes177-076","hes177-103","hes177-120","hes177-126","hes177-137","hes177-142","hes177-075"],"hesCount":9,"installedPowerMw":1188.34,"basinId":"18","basinIds":["18"],"geometrySource":"TATUS Layer 8 focused corridor","matchMethod":"workbook-pre-mapping","confidence":"high","lengthKm":0.33137006695633947,"totalLengthKm":0.33137006695633947,"segmentCount":1,"candidateSegmentCount":8,"omittedDisconnectedSegmentCount":7,"disconnectedComponents":1,"corridorHesCount":5,"geoglowsLocalRiverIds":["392690","392686"],"geoglowsRiverIds":[210221319,210317414],"geoglowsMatchMethod":"same-basin-nearest-corridor","geoglowsMatchDistanceKm":73.71,"representativeLocalRiverId":"392690","representativeGeoglowsRiverId":210221319,"hes177":true}},{"type":"Feature","id":"river-system-012","geometry":{"type":"MultiLineString","coordinates":[[[37.005,38.103],[37.005,38.103]],[[37.005,38.104],[37.005,38.103]]]},"properties":{"id":"river-system-012","entityId":"river-system-012","entityType":"hesRiverSystem","name":"Ceyhan","riverName":"Ceyhan","riverSystemId":"river-system-012","riverCode":"TR20NH037204","riverCodes":["TR20NH037204","TR20NH016630","TR20NH022965","TR20NH072432","TR20NH113094","TR20NH035402","TR20NH049694","TR20NH056105","TR20NH042544","TR20NH033648"],"hesIds":["hes177-015","hes177-022","hes177-035","hes177-081","hes177-089","hes177-099","hes177-108","hes177-127","hes177-138","hes177-145"],"hesCount":10,"installedPowerMw":1609.9,"basinId":"20","basinIds":["20"],"geometrySource":"TATUS named river corridor","matchMethod":"workbook-pre-mapping","confidence":"high","lengthKm":0.11119492664426889,"totalLengthKm":0.11119492664426889,"segmentCount":2,"candidateSegmentCount":2,"omittedDisconnectedSegmentCount":0,"disconnectedComponents":1,"corridorHesCount":1,"geoglowsLocalRiverIds":[],"geoglowsRiverIds":[],"geoglowsMatchMethod":"unmatched","geoglowsMatchDistanceKm":null,"representativeLocalRiverId":null,"representativeGeoglowsRiverId":null,"hes177":true}},{"type":"Feature","id":"river-system-015","geometry":{"type":"MultiLineString","coordinates":[[[40.194,38.445],[40.193,38.442]],[[40.195,38.447],[40.194,38.445]],[[40.184,38.45],[40.195,38.447]],[[40.183,38.453],[40.184,38.45]],[[40.184,38.461],[40.183,38.453]],[[40.216,38.461],[40.184,38.461]],[[40.302,38.483],[40.3,38.48]],[[40.3,38.48],[40.299,38.479]]]},"properties":{"id":"river-system-015","entityId":"river-system-015","entityType":"hesRiverSystem","name":"Dicle","riverName":"Dicle","riverSystemId":"river-system-015","riverCode":"TR21NH722708","riverCodes":["TR21NH722708","TR21NH299615","TR21NH150097","TR21NH306813","TR21NH722509","TR21NH275707"],"hesIds":["hes177-009","hes177-032","hes177-061","hes177-071","hes177-086","hes177-111","hes177-121","hes177-154"],"hesCount":8,"installedPowerMw":2015.0,"basinId":"21","basinIds":["21"],"geometrySource":"TATUS named river corridor","matchMethod":"controlled-facility-map","confidence":"high","lengthKm":6.140227777931055,"totalLengthKm":6.140227777931055,"segmentCount":8,"candidateSegmentCount":26,"omittedDisconnectedSegmentCount":18,"disconnectedComponents":1,"corridorHesCount":2,"geoglowsLocalRiverIds":["462705"],"geoglowsRiverIds":[290231275],"geoglowsMatchMethod":"same-basin-nearest-corridor","geoglowsMatchDistanceKm":47.22,"representativeLocalRiverId":"462705","representativeGeoglowsRiverId":290231275,"hes177":true}},{"type":"Feature","id":"river-system-016","geometry":{"type":"LineString","coordinates":[[38.314741671000036,37.47396827500006],[38.30473200000006,37.473193700000024],[38.29956200000004,37.47371560000005],[38.29250300000007,37.47557980000005],[38.28385300000008,37.476847400000054],[38.28375100000005,37.47685650000005]]},"properties":{"id":"river-system-016","entityId":"river-system-016","entityType":"hesRiverSystem","name":"Fırat","riverName":"Fırat","riverSystemId":"river-system-016","riverCode":"TR21NH621308","riverCodes":["TR21NH621308","TR21NH620729","TR21NH702139","TR21NH711714","TR21NH725375","TR21NH721318","TR21NH386682","TR21NH697549","TR21NH149212","TR21NH401363","TR21NH490181","TR21NH459961","TR21NH704946","TR21NH442521","TR21NH413479"],"hesIds":["hes177-011","hes177-012","hes177-023","hes177-025","hes177-027","hes177-028","hes177-036","hes177-037","hes177-093","hes177-105","hes177-110","hes177-134","hes177-135","hes177-143","hes177-155","hes177-100","hes177-146","hes177-167","hes177-175"],"hesCount":19,"installedPowerMw":9462.6,"basinId":"21","basinIds":["21"],"geometrySource":"TATUS Layer 8 focused corridor","matchMethod":"controlled-facility-map+verified-cascade-chain","confidence":"high","lengthKm":2.789241604706198,"totalLengthKm":2.789241604706198,"segmentCount":1,"candidateSegmentCount":15,"omittedDisconnectedSegmentCount":14,"disconnectedComponents":1,"corridorHesCount":1,"geoglowsLocalRiverIds":["442007","441590","440743","447926"],"geoglowsRiverIds":[290275362,290302887,290349673,290217548],"geoglowsMatchMethod":"same-basin-nearest-corridor","geoglowsMatchDistanceKm":56.64,"representativeLocalRiverId":"442007","representativeGeoglowsRiverId":290275362,"hes177":true}},{"type":"Feature","id":"river-system-020","geometry":{"type":"MultiLineString","coordinates":[[[40.767,40.903],[40.768,40.905]],[[40.768,40.905],[40.769,40.908]],[[40.769,40.908],[40.769,40.909]],[[40.769,40.909],[40.77,40.912]],[[40.77,40.912],[40.771,40.913]],[[40.771,40.913],[40.772,40.914]],[[40.772,40.914],[40.777,40.918]],[[40.777,40.918],[40.776,40.92]],[[40.776,40.92],[40.773,40.921]],[[40.773,40.921],[40.771,40.924]],[[40.771,40.924],[40.774,40.93]],[[40.774,40.93],[40.772,40.931]],[[40.772,40.931],[40.781,40.941]],[[40.779,40.941],[40.776,40.941]],[[40.781,40.941],[40.779,40.941]]]},"properties":{"id":"river-system-020","entityId":"river-system-020","entityType":"hesRiverSystem","name":"Calet","riverName":"Calet","riverSystemId":"river-system-020","riverCode":"TR22NH072105","riverCodes":["TR22NH072105"],"hesIds":["hes177-168"],"hesCount":1,"installedPowerMw":62.0,"basinId":"22","basinIds":["22"],"geometrySource":"TATUS named river corridor","matchMethod":"tatus-spatial","confidence":"medium","lengthKm":5.493540573155934,"totalLengthKm":5.493540573155934,"segmentCount":15,"candidateSegmentCount":15,"omittedDisconnectedSegmentCount":0,"disconnectedComponents":1,"corridorHesCount":1,"geoglowsLocalRiverIds":[],"geoglowsRiverIds":[],"geoglowsMatchMethod":"unmatched","geoglowsMatchDistanceKm":null,"representativeLocalRiverId":null,"representativeGeoglowsRiverId":null,"hes177":true}},{"type":"Feature","id":"river-system-025","geometry":{"type":"MultiLineString","coordinates":[[[40.105,40.624],[40.105,40.624]],[[40.105,40.624],[40.103,40.63]],[[40.103,40.63],[40.104,40.632]],[[40.104,40.632],[40.105,40.633]],[[40.106,40.635],[40.109,40.639]],[[40.105,40.633],[40.106,40.635]],[[40.109,40.639],[40.111,40.642]],[[40.111,40.642],[40.112,40.643]],[[40.112,40.643],[40.112,40.643]],[[40.112,40.643],[40.11,40.645]],[[40.11,40.645],[40.109,40.645]],[[40.109,40.645],[40.11,40.646]],[[40.11,40.646],[40.115,40.65]],[[40.115,40.65],[40.115,40.651]],[[40.115,40.651],[40.112,40.653]],[[40.112,40.653],[40.112,40.653]],[[40.112,40.653],[40.114,40.656]],[[40.114,40.656],[40.112,40.658]],[[40.112,40.658],[40.112,40.658]],[[40.112,40.658],[40.112,40.659]],[[40.112,40.659],[40.114,40.664]],[[40.114,40.664],[40.114,40.664]],[[40.114,40.664],[40.113,40.667]],[[40.113,40.667],[40.111,40.668]],[[40.111,40.668],[40.111,40.671]],[[40.111,40.671],[40.11,40.673]],[[40.11,40.673],[40.11,40.674]],[[40.11,40.674],[40.106,40.675]],[[40.106,40.675],[40.106,40.676]],[[40.106,40.676],[40.107,40.679]],[[40.107,40.679],[40.112,40.68]],[[40.112,40.68],[40.112,40.683]],[[40.112,40.683],[40.108,40.685]],[[40.108,40.685],[40.108,40.686]],[[40.108,40.686],[40.109,40.687]],[[40.109,40.687],[40.113,40.688]],[[40.113,40.688],[40.117,40.692]],[[40.117,40.692],[40.119,40.695]],[[40.119,40.695],[40.121,40.696]],[[40.121,40.696],[40.121,40.697]],[[40.121,40.697],[40.122,40.699]],[[40.122,40.699],[40.121,40.701]],[[40.121,40.701],[40.118,40.702]],[[40.118,40.702],[40.118,40.704]],[[40.118,40.704],[40.117,40.706]],[[40.117,40.706],[40.117,40.708]],[[40.117,40.708],[40.117,40.711]],[[40.117,40.711],[40.116,40.712]],[[40.116,40.712],[40.118,40.713]],[[40.118,40.713],[40.118,40.714]],[[40.118,40.714],[40.117,40.716]],[[40.117,40.716],[40.116,40.721]],[[40.116,40.721],[40.116,40.722]],[[40.116,40.722],[40.116,40.723]],[[40.116,40.723],[40.117,40.725]],[[40.117,40.725],[40.118,40.727]],[[40.118,40.727],[40.119,40.73]],[[40.119,40.73],[40.121,40.733]],[[40.121,40.733],[40.122,40.734]],[[40.122,40.734],[40.123,40.738]],[[40.123,40.738],[40.123,40.74]],[[40.123,40.74],[40.122,40.74]],[[40.122,40.74],[40.122,40.743]],[[40.122,40.743],[40.122,40.747]],[[40.122,40.747],[40.122,40.75]],[[40.122,40.75],[40.126,40.763]],[[40.126,40.763],[40.126,40.763]],[[40.126,40.763],[40.125,40.769]],[[40.125,40.769],[40.123,40.771]],[[40.123,40.771],[40.125,40.774]],[[40.125,40.774],[40.125,40.776]],[[40.125,40.776],[40.125,40.776]],[[40.125,40.776],[40.126,40.777]],[[40.126,40.777],[40.128,40.781]],[[40.128,40.781],[40.128,40.782]],[[40.128,40.782],[40.128,40.785]],[[40.128,40.785],[40.128,40.788]],[[40.128,40.788],[40.123,40.791]],[[40.123,40.791],[40.124,40.796]],[[40.124,40.796],[40.123,40.797]],[[40.123,40.797],[40.123,40.806]]]},"properties":{"id":"river-system-025","entityId":"river-system-025","entityType":"hesRiverSystem","name":"Manahoz","riverName":"Manahoz","riverSystemId":"river-system-025","riverCode":null,"riverCodes":[],"hesIds":["hes177-176"],"hesCount":1,"installedPowerMw":22.4,"basinId":"22","basinIds":["22"],"geometrySource":"TATUS named river corridor","matchMethod":"controlled-facility-map","confidence":"high","lengthKm":23.41432407800245,"totalLengthKm":23.41432407800245,"segmentCount":81,"candidateSegmentCount":81,"omittedDisconnectedSegmentCount":0,"disconnectedComponents":1,"corridorHesCount":0,"geoglowsLocalRiverIds":[],"geoglowsRiverIds":[],"geoglowsMatchMethod":"unmatched","geoglowsMatchDistanceKm":null,"representativeLocalRiverId":null,"representativeGeoglowsRiverId":null,"hes177":true}},{"type":"Feature","id":"river-system-026","geometry":{"type":"MultiLineString","coordinates":[[[38.138,40.752],[38.139,40.753]],[[38.139,40.753],[38.147,40.759]],[[38.132,40.78],[38.133,40.782]],[[38.133,40.782],[38.136,40.783]],[[38.136,40.783],[38.144,40.783]],[[38.154,40.802],[38.153,40.81]],[[38.147,40.816],[38.142,40.817]],[[38.142,40.859],[38.141,40.859]]]},"properties":{"id":"river-system-026","entityId":"river-system-026","entityType":"hesRiverSystem","name":"PAZARSUYU","riverName":"PAZARSUYU","riverSystemId":"river-system-026","riverCode":null,"riverCodes":[],"hesIds":["hes177-055"],"hesCount":1,"installedPowerMw":110.0,"basinId":"22","basinIds":["22"],"geometrySource":"TATUS named river corridor","matchMethod":"tatus-station-suadi","confidence":"medium","lengthKm":3.6879274240613995,"totalLengthKm":3.6879274240613995,"segmentCount":8,"candidateSegmentCount":8,"omittedDisconnectedSegmentCount":0,"disconnectedComponents":1,"corridorHesCount":0,"geoglowsLocalRiverIds":[],"geoglowsRiverIds":[],"geoglowsMatchMethod":"unmatched","geoglowsMatchDistanceKm":null,"representativeLocalRiverId":null,"representativeGeoglowsRiverId":null,"hes177":true}},{"type":"Feature","id":"river-system-027","geometry":{"type":"MultiLineString","coordinates":[[[37.968,40.736],[37.967,40.737]],[[37.967,40.737],[37.962,40.745]],[[37.962,40.745],[37.966,40.75]],[[37.974,40.745],[37.98,40.747]],[[37.97,40.746],[37.974,40.745]],[[37.98,40.747],[37.978,40.753]],[[37.966,40.75],[37.968,40.751]],[[37.968,40.751],[37.97,40.746]],[[37.978,40.753],[37.988,40.754]],[[37.988,40.754],[37.987,40.759]],[[37.987,40.759],[37.99,40.763]],[[37.99,40.763],[37.99,40.769]],[[37.99,40.769],[37.988,40.771]],[[37.986,40.771],[37.982,40.773]],[[37.988,40.771],[37.986,40.771]],[[37.982,40.773],[37.98,40.774]],[[37.98,40.774],[37.98,40.774]],[[37.98,40.774],[37.981,40.78]],[[37.981,40.78],[37.974,40.783]],[[37.974,40.783],[37.975,40.786]],[[37.975,40.786],[37.977,40.787]],[[37.977,40.787],[37.976,40.789]],[[37.976,40.789],[37.978,40.791]],[[37.978,40.795],[37.975,40.798]],[[37.975,40.798],[37.976,40.799]],[[37.978,40.801],[37.978,40.802]],[[37.975,40.809],[37.972,40.812]],[[37.972,40.812],[37.974,40.815]],[[37.974,40.817],[37.974,40.817]],[[37.974,40.817],[37.971,40.822]],[[37.97,40.823],[37.969,40.824]],[[37.969,40.824],[37.968,40.828]],[[37.964,40.827],[37.96,40.829]],[[37.96,40.829],[37.96,40.83]],[[37.963,40.835],[37.965,40.836]],[[37.966,40.839],[37.966,40.842]],[[37.967,40.844],[37.967,40.844]],[[37.967,40.844],[37.967,40.845]],[[37.976,40.883],[37.976,40.883]],[[37.976,40.883],[37.975,40.885]],[[37.971,40.886],[37.97,40.886]],[[37.971,40.897],[37.971,40.898]],[[37.971,40.898],[37.969,40.905]]]},"properties":{"id":"river-system-027","entityId":"river-system-027","entityType":"hesRiverSystem","name":"TURNASUYU","riverName":"TURNASUYU","riverSystemId":"river-system-027","riverCode":null,"riverCodes":[],"hesIds":["hes177-056","hes177-117"],"hesCount":2,"installedPowerMw":155.0,"basinId":"22","basinIds":["22"],"geometrySource":"TATUS named river corridor","matchMethod":"tatus-station-suadi","confidence":"medium","lengthKm":15.261749541531909,"totalLengthKm":15.261749541531909,"segmentCount":43,"candidateSegmentCount":43,"omittedDisconnectedSegmentCount":0,"disconnectedComponents":1,"corridorHesCount":2,"geoglowsLocalRiverIds":[],"geoglowsRiverIds":[],"geoglowsMatchMethod":"unmatched","geoglowsMatchDistanceKm":null,"representativeLocalRiverId":null,"representativeGeoglowsRiverId":null,"hes177":true}},{"type":"Feature","id":"river-system-029","geometry":{"type":"LineString","coordinates":[[41.651158000000066,40.81939300000005],[41.65128000000004,40.819472000000076],[41.65198700000008,40.81987900000007],[41.652622000000065,40.82013600000005],[41.65381400000007,40.820557000000065],[41.654364000000044,40.820550000000026],[41.654963000000066,40.820479000000034],[41.65659100000005,40.82015800000005],[41.65756900000008,40.82000100000005],[41.65821500000004,40.82003300000008],[41.658570000000054,40.820035000000075]]},"properties":{"id":"river-system-029","entityId":"river-system-029","entityType":"hesRiverSystem","name":"Çoruh","riverName":"Çoruh","riverSystemId":"river-system-029","riverCode":"TR23NH084666","riverCodes":["TR23NH084666","TR23NH084369","TR23NH058042","TR23NH079677","TR23NH090000","TR23NH041981","TR23NH082619","TR23NH061338"],"hesIds":["hes177-018","hes177-019","hes177-026","hes177-039","hes177-059","hes177-077","hes177-129","hes177-177","hes177-161"],"hesCount":9,"installedPowerMw":2465.2,"basinId":"23","basinIds":["23"],"geometrySource":"TATUS Layer 8 focused corridor","matchMethod":"workbook-pre-mapping","confidence":"high","lengthKm":0.6669012770391257,"totalLengthKm":0.6669012770391257,"segmentCount":1,"candidateSegmentCount":8,"omittedDisconnectedSegmentCount":7,"disconnectedComponents":1,"corridorHesCount":4,"geoglowsLocalRiverIds":[],"geoglowsRiverIds":[],"geoglowsMatchMethod":"unmatched","geoglowsMatchDistanceKm":null,"representativeLocalRiverId":null,"representativeGeoglowsRiverId":null,"hes177":true}},{"type":"Feature","id":"river-system-030","geometry":{"type":"LineString","coordinates":[[42.95784143700007,41.16671787400003],[42.95816300000007,41.16662500000007],[42.95836300000008,41.166548000000034],[42.958841000000064,41.16651400000006],[42.959618000000034,41.166525000000036],[42.96032900000006,41.16667000000007],[42.961028000000056,41.166859000000045],[42.96169500000008,41.16693600000008],[42.96196800000007,41.166923000000054]]},"properties":{"id":"river-system-030","entityId":"river-system-030","entityType":"hesRiverSystem","name":"Aras","riverName":"Aras","riverSystemId":"river-system-030","riverCode":"TR24NH065185","riverCodes":["TR24NH065185","TR24NH025145","TR24NH057911"],"hesIds":["hes177-017","hes177-094","hes177-114","hes177-141"],"hesCount":4,"installedPowerMw":339.951,"basinId":"24","basinIds":["24"],"geometrySource":"TATUS Layer 8 focused corridor","matchMethod":"workbook-pre-mapping","confidence":"high","lengthKm":0.3560920050122949,"totalLengthKm":0.3560920050122949,"segmentCount":1,"candidateSegmentCount":3,"omittedDisconnectedSegmentCount":2,"disconnectedComponents":1,"corridorHesCount":2,"geoglowsLocalRiverIds":["621926","621658"],"geoglowsRiverIds":[280235867,280366047],"geoglowsMatchMethod":"same-basin-nearest-corridor","geoglowsMatchDistanceKm":64.04,"representativeLocalRiverId":"621926","representativeGeoglowsRiverId":280235867,"hes177":true}},{"type":"Feature","id":"river-system-031","geometry":{"type":"LineString","coordinates":[[28.56385800000004,39.91577390000003],[28.56385400000005,39.91580680000004],[28.563881000000038,39.91589370000003],[28.56387200000006,39.91601960000003],[28.563877000000048,39.916035400000055],[28.563918000000058,39.916318200000035],[28.56393600000007,39.91642010000004],[28.563961000000063,39.91662020000007],[28.56397000000004,39.91671310000004],[28.56398900000005,39.91685160000003],[28.564031000000057,39.91701030000007],[28.564036000000044,39.91710930000005],[28.56403800000004,39.917339500000026],[28.564046000000076,39.917368500000066],[28.564062000000035,39.917495200000076],[28.564076000000057,39.91762330000006],[28.56408200000004,39.917759000000046],[28.564078000000052,39.917869600000074],[28.564078000000052,39.917895600000065],[28.564072000000067,39.91795600000006],[28.56405600000005,39.91802210000003],[28.564043000000026,39.918138500000055],[28.564027000000067,39.91820900000005],[28.564024000000074,39.91821370000008],[28.56401100000005,39.91825230000006],[28.564010000000053,39.91827250000006],[28.56399300000004,39.918318500000055],[28.56398500000006,39.91836260000008],[28.563960000000066,39.91841400000004],[28.563934000000074,39.91848740000006],[28.563912000000073,39.91852600000004],[28.563905000000034,39.91859770000008],[28.56389400000006,39.918641800000046],[28.563883000000033,39.91869490000005],[28.563873000000058,39.91875930000003],[28.56386100000003,39.91880340000006],[28.563840000000027,39.918841900000075],[28.563795000000027,39.91900360000005],[28.56375600000007,39.91908440000003],[28.563751000000025,39.91909080000005],[28.563730000000078,39.919141300000035],[28.56365100000005,39.91928640000003],[28.563554000000067,39.919435200000066],[28.56348600000007,39.91953440000003],[28.563420000000065,39.91962630000006],[28.563363000000038,39.91969780000005],[28.563282000000072,39.91976590000007],[28.56325300000003,39.91980630000006],[28.563216000000068,39.91984300000007],[28.563175000000058,39.91988710000004],[28.563085000000058,39.91997890000005],[28.562995000000058,39.92004500000007],[28.562858000000062,39.92015890000005],[28.56281400000006,39.920169900000076],[28.56270500000005,39.92021220000004],[28.562592000000052,39.92027460000003],[28.562334000000078,39.92036260000003],[28.56227400000006,39.92039120000004],[28.562242000000026,39.92039300000005],[28.562194000000034,39.92040220000007],[28.562055000000043,39.92048040000003],[28.562014000000033,39.920487800000046],[28.561923000000036,39.92049140000006],[28.56177500000007,39.92050240000003],[28.561630000000036,39.92054120000006],[28.561608000000035,39.920549900000026],[28.56155300000006,39.92055650000003],[28.56148600000006,39.920549900000026],[28.56131800000003,39.920608800000025],[28.561187000000075,39.92062630000004],[28.561106000000052,39.92065900000006],[28.56085100000007,39.920835700000055],[28.560775000000035,39.92089900000008],[28.560691000000077,39.920975300000066],[28.560635000000048,39.92100360000006],[28.560578000000078,39.92103860000003],[28.560474000000056,39.92113950000004],[28.560459000000037,39.92114830000003],[28.56040100000007,39.92119780000007],[28.560329000000024,39.92126310000003],[28.56024400000007,39.92136990000006],[28.560228000000052,39.92139780000008],[28.560211000000038,39.92141940000005],[28.560123000000033,39.921524100000056],[28.560074000000043,39.92156840000007],[28.560036000000025,39.921610300000054],[28.559957000000054,39.92172620000008],[28.559900000000027,39.92181350000004],[28.55985400000003,39.921905200000026],[28.55978600000003,39.92201440000008],[28.559724000000074,39.92213440000006],[28.55966600000005,39.92223800000005],[28.559656000000075,39.92226530000005],[28.559622000000047,39.92232420000005],[28.55956800000007,39.92240280000004],[28.559409000000073,39.92255030000007],[28.559183000000075,39.922669400000075],[28.559116000000074,39.92273050000006],[28.559053000000063,39.922776300000066],[28.558970000000045,39.922833000000026],[28.558742000000052,39.92294720000007],[28.558508000000074,39.92304750000005],[28.558373000000074,39.923112100000026],[28.558273000000042,39.923153900000045],[28.55820700000004,39.92317860000003],[28.557494000000077,39.92347220000005],[28.55727900000005,39.92354540000008],[28.557221000000027,39.92356950000004],[28.557142000000056,39.92359360000006],[28.557055000000048,39.923623500000076],[28.557014000000038,39.92364310000005],[28.556944000000044,39.92368460000006],[28.556914000000063,39.92369770000005],[28.556877000000043,39.92372820000003],[28.556824000000063,39.923754400000064],[28.556783000000053,39.92378140000005],[28.556755000000067,39.92379640000007],[28.55669000000006,39.923840400000074],[28.556659000000025,39.923855600000024],[28.55662200000006,39.92388170000004],[28.556595000000073,39.92393230000005],[28.556566000000032,39.92395280000005],[28.55654400000003,39.92395990000006],[28.55653200000006,39.92396720000005],[28.556516000000045,39.923974300000054],[28.556503000000077,39.92398010000005],[28.55649600000004,39.923991400000034],[28.556481000000076,39.92399780000005],[28.556474000000037,39.92400920000006],[28.55644200000006,39.924044200000026],[28.556328000000065,39.92412880000006],[28.556253000000027,39.92418980000008],[28.55621000000008,39.92424450000004],[28.556141000000025,39.92429670000007],[28.555954000000042,39.924406400000066],[28.555885000000046,39.924491500000045],[28.555873000000076,39.92449890000006]]},"properties":{"id":"river-system-031","entityId":"river-system-031","entityType":"hesRiverSystem","name":"Susurluk","riverName":"Susurluk","riverSystemId":"river-system-031","riverCode":"TR03NH097195","riverCodes":["TR03NH097195","TR03NH110610"],"hesIds":["hes177-060","hes177-164"],"hesCount":2,"installedPowerMw":128.9,"basinId":"3","basinIds":["3"],"geometrySource":"TATUS Layer 8 focused corridor","matchMethod":"workbook-pre-mapping","confidence":"high","lengthKm":1.3152766381902057,"totalLengthKm":1.3152766381902057,"segmentCount":1,"candidateSegmentCount":2,"omittedDisconnectedSegmentCount":1,"disconnectedComponents":1,"corridorHesCount":2,"geoglowsLocalRiverIds":["52343","51932"],"geoglowsRiverIds":[210160960,210130335],"geoglowsMatchMethod":"same-basin-nearest-corridor","geoglowsMatchDistanceKm":17.73,"representativeLocalRiverId":"52343","representativeGeoglowsRiverId":210160960,"hes177":true}},{"type":"Feature","id":"river-system-032","geometry":{"type":"LineString","coordinates":[[28.305442000000028,38.61349430000007],[28.30538400000006,38.61349700000005],[28.30532900000003,38.61350560000005],[28.305241000000024,38.613536200000055],[28.305207000000053,38.613557300000025],[28.304891000000055,38.61377640000006],[28.304038000000048,38.61448320000005],[28.30373300000008,38.61475180000008],[28.30338400000005,38.614959500000055],[28.303134000000057,38.615054900000075],[28.303090000000054,38.61507810000006],[28.303018000000066,38.61508980000008],[28.30299700000006,38.61508740000005]]},"properties":{"id":"river-system-032","entityId":"river-system-032","entityType":"hesRiverSystem","name":"Gediz","riverName":"Gediz","riverSystemId":"river-system-032","riverCode":"TR05NH041590","riverCodes":["TR05NH041590"],"hesIds":["hes177-057"],"hesCount":1,"installedPowerMw":69.0,"basinId":"5","basinIds":["5"],"geometrySource":"TATUS Layer 8 focused corridor","matchMethod":"workbook-pre-mapping","confidence":"high","lengthKm":0.2818561064446566,"totalLengthKm":0.2818561064446566,"segmentCount":1,"candidateSegmentCount":1,"omittedDisconnectedSegmentCount":0,"disconnectedComponents":1,"corridorHesCount":1,"geoglowsLocalRiverIds":["73183","74887"],"geoglowsRiverIds":[210237074,210177932],"geoglowsMatchMethod":"same-basin-nearest-corridor","geoglowsMatchDistanceKm":59.53,"representativeLocalRiverId":"73183","representativeGeoglowsRiverId":210237074,"hes177":true}},{"type":"Feature","id":"river-system-033","geometry":{"type":"LineString","coordinates":[[29.034777000000076,38.11557400000004],[29.03384600000004,38.11510720000007],[29.033402000000024,38.11493440000004],[29.033061000000032,38.114715200000035],[29.03275300000007,38.11438270000008],[29.032713000000058,38.11410090000004],[29.032778000000064,38.11397100000005],[29.032613000000026,38.11363290000003],[29.032560000000046,38.11341640000006],[29.032456000000025,38.11321040000007],[29.03228500000006,38.11293440000003],[29.03214200000008,38.11262990000006],[29.031942000000072,38.11245850000006],[29.03159000000005,38.112344300000075],[29.031152000000077,38.11231580000003],[29.030809000000033,38.11243940000003],[29.030486000000053,38.112572700000044],[29.030162000000075,38.11269640000006],[29.02983800000004,38.11280110000007],[29.029296000000045,38.11283920000005],[29.028991000000076,38.112829600000055],[29.028621000000044,38.112577300000055],[29.02857300000005,38.11254420000006],[29.028503000000057,38.11249710000004]]},"properties":{"id":"river-system-033","entityId":"river-system-033","entityType":"hesRiverSystem","name":"Büyük Menderes","riverName":"Büyük Menderes","riverSystemId":"river-system-033","riverCode":"TR07NH137075","riverCodes":["TR07NH137075","TR07NH182178","TR07NH135933","TR07NH017208","TR07NH180608"],"hesIds":["hes177-002","hes177-003","hes177-045","hes177-054","hes177-106"],"hesCount":5,"installedPowerMw":215.1,"basinId":"7","basinIds":["7"],"geometrySource":"TATUS Layer 8 focused corridor","matchMethod":"workbook-pre-mapping","confidence":"high","lengthKm":0.786408698823718,"totalLengthKm":0.786408698823718,"segmentCount":1,"candidateSegmentCount":5,"omittedDisconnectedSegmentCount":4,"disconnectedComponents":1,"corridorHesCount":3,"geoglowsLocalRiverIds":["119618","113460"],"geoglowsRiverIds":[210282503,210201224],"geoglowsMatchMethod":"same-basin-nearest-corridor","geoglowsMatchDistanceKm":54.47,"representativeLocalRiverId":"119618","representativeGeoglowsRiverId":210282503,"hes177":true}},{"type":"Feature","id":"river-system-037","geometry":{"type":"MultiLineString","coordinates":[[[32.055,36.522],[32.054,36.521]],[[32.084,36.534],[32.055,36.522]],[[32.095,36.54],[32.084,36.534]],[[32.106,36.542],[32.095,36.54]],[[32.109,36.543],[32.106,36.542]],[[32.115,36.543],[32.111,36.543]],[[32.111,36.543],[32.109,36.543]],[[32.124,36.548],[32.115,36.543]],[[32.128,36.548],[32.125,36.548]],[[32.125,36.548],[32.124,36.548]],[[32.135,36.549],[32.135,36.549]],[[32.135,36.549],[32.128,36.548]],[[32.136,36.549],[32.135,36.549]],[[32.137,36.55],[32.136,36.549]]]},"properties":{"id":"river-system-037","entityId":"river-system-037","entityType":"hesRiverSystem","name":"Dim","riverName":"Dim","riverSystemId":"river-system-037","riverCode":null,"riverCodes":[],"hesIds":["hes177-062"],"hesCount":1,"installedPowerMw":38.3,"basinId":"9","basinIds":["9"],"geometrySource":"TATUS named river corridor","matchMethod":"controlled-facility-map","confidence":"high","lengthKm":8.280700825962247,"totalLengthKm":8.280700825962247,"segmentCount":14,"candidateSegmentCount":35,"omittedDisconnectedSegmentCount":21,"disconnectedComponents":1,"corridorHesCount":0,"geoglowsLocalRiverIds":["150387"],"geoglowsRiverIds":[210298406],"geoglowsMatchMethod":"same-basin-nearest-corridor","geoglowsMatchDistanceKm":66.81,"representativeLocalRiverId":"150387","representativeGeoglowsRiverId":210298406,"hes177":true}},{"type":"Feature","id":"river-system-040","geometry":{"type":"MultiLineString","coordinates":[[[30.944,37.133],[30.944,37.132]],[[30.944,37.135],[30.944,37.133]],[[30.947,37.138],[30.944,37.135]],[[30.945,37.141],[30.947,37.138]],[[30.951,37.144],[30.945,37.141]],[[30.952,37.144],[30.951,37.144]],[[30.953,37.146],[30.952,37.144]],[[30.955,37.146],[30.953,37.146]],[[30.956,37.147],[30.955,37.146]],[[30.958,37.149],[30.955,37.148]],[[30.955,37.148],[30.956,37.147]],[[30.958,37.15],[30.958,37.149]],[[30.958,37.15],[30.958,37.15]],[[30.958,37.153],[30.958,37.15]],[[30.957,37.157],[30.958,37.156]],[[30.958,37.156],[30.958,37.153]],[[30.951,37.166],[30.957,37.157]]]},"properties":{"id":"river-system-040","entityId":"river-system-040","entityType":"hesRiverSystem","name":"KÜÇÜKAKSU","riverName":"KÜÇÜKAKSU","riverSystemId":"river-system-040","riverCode":null,"riverCodes":[],"hesIds":["hes177-092"],"hesCount":1,"installedPowerMw":47.2,"basinId":"9","basinIds":["9"],"geometrySource":"TATUS named river corridor","matchMethod":"tatus-station-suadi","confidence":"medium","lengthKm":4.897439283767046,"totalLengthKm":4.897439283767046,"segmentCount":17,"candidateSegmentCount":17,"omittedDisconnectedSegmentCount":0,"disconnectedComponents":1,"corridorHesCount":1,"geoglowsLocalRiverIds":["146129","144428","150387"],"geoglowsRiverIds":[210281499,210231878,210298406],"geoglowsMatchMethod":"same-basin-nearest-corridor","geoglowsMatchDistanceKm":39.91,"representativeLocalRiverId":"146129","representativeGeoglowsRiverId":210281499,"hes177":true}}]}