{"type":"FeatureCollection","features":[{"type":"Feature","geometry":{"type":"Point","coordinates":[27.33361000000008,38.68195000000003]},"properties":{"id":"125","entityId":"125","name":"MURADİYE KÖPRÜSÜ","IstAdi":"MURADİYE KÖPRÜSÜ","SuAdi":"GEDİZ N.","basinId":"5","riverName":"Gediz","entityType":"hesRiverAnchors"}},{"type":"Feature","geometry":{"type":"Point","coordinates":[28.603890000000035,38.66889000000003]},"properties":{"id":"134","entityId":"134","name":"HAMİDİYE KÖP.","IstAdi":"HAMİDİYE KÖP.","SuAdi":"GEDİZ N.","basinId":"5","riverName":"Gediz","entityType":"hesRiverAnchors"}},{"type":"Feature","geometry":{"type":"Point","coordinates":[37.550560000000075,40.25333000000006]},"properties":{"id":"342","entityId":"342","name":"KOZLU","IstAdi":"KOZLU","SuAdi":"YEŞİLIRMAK","basinId":"14","riverName":"Yeşilırmak","entityType":"hesRiverAnchors"}},{"type":"Feature","geometry":{"type":"Point","coordinates":[36.62722000000008,40.348610000000065]},"properties":{"id":"346","entityId":"346","name":"GÜMENEK","IstAdi":"GÜMENEK","SuAdi":"YEŞİLIRMAK N.","basinId":"14","riverName":"Yeşilırmak","entityType":"hesRiverAnchors"}},{"type":"Feature","geometry":{"type":"Point","coordinates":[35.829440000000034,40.651670000000024]},"properties":{"id":"347","entityId":"347","name":"AMASYA","IstAdi":"AMASYA","SuAdi":"YEŞİLIRMAK N.","basinId":"14","riverName":"Yeşilırmak","entityType":"hesRiverAnchors"}},{"type":"Feature","geometry":{"type":"Point","coordinates":[36.19861000000003,40.300830000000076]},"properties":{"id":"348","entityId":"348","name":"OVAYURT","IstAdi":"OVAYURT","SuAdi":"YEŞİLIRMAK N.","basinId":"14","riverName":"Yeşilırmak","entityType":"hesRiverAnchors"}},{"type":"Feature","geometry":{"type":"Point","coordinates":[36.72694000000007,41.204720000000066]},"properties":{"id":"350","entityId":"350","name":"ÇARŞAMBA KÖPRÜSÜ","IstAdi":"ÇARŞAMBA KÖPRÜSÜ","SuAdi":"YEŞİLIRMAK N.","basinId":"14","riverName":"Yeşilırmak","entityType":"hesRiverAnchors"}},{"type":"Feature","geometry":{"type":"Point","coordinates":[36.679440000000056,40.37722000000008]},"properties":{"id":"364","entityId":"364","name":"KIZILKÖY","IstAdi":"KIZILKÖY","SuAdi":"YEŞİLIRMAK N.","basinId":"14","riverName":"Yeşilırmak","entityType":"hesRiverAnchors"}},{"type":"Feature","geometry":{"type":"Point","coordinates":[37.82583000000005,39.90556000000004]},"properties":{"id":"395","entityId":"395","name":"AHMETHACI","IstAdi":"AHMETHACI","SuAdi":"KIZILIRMAK","basinId":"15","riverName":"Kızılırmak","entityType":"hesRiverAnchors"}},{"type":"Feature","geometry":{"type":"Point","coordinates":[33.97222000000005,40.34639000000004]},"properties":{"id":"400","entityId":"400","name":"HÜSEYİNLİ","IstAdi":"HÜSEYİNLİ","SuAdi":"KIZILIRMAK N.","basinId":"15","riverName":"Kızılırmak","entityType":"hesRiverAnchors"}},{"type":"Feature","geometry":{"type":"Point","coordinates":[33.76667000000003,39.918330000000026]},"properties":{"id":"419","entityId":"419","name":"BALIŞEYH","IstAdi":"BALIŞEYH","SuAdi":"ÇORUHÖZÜ D.","basinId":"15","riverName":"Çoruh","entityType":"hesRiverAnchors"}},{"type":"Feature","geometry":{"type":"Point","coordinates":[37.132780000000025,39.78250000000003]},"properties":{"id":"423","entityId":"423","name":"DİKMENCİK","IstAdi":"DİKMENCİK","SuAdi":"KIZILIRMAK","basinId":"15","riverName":"Kızılırmak","entityType":"hesRiverAnchors"}},{"type":"Feature","geometry":{"type":"Point","coordinates":[35.838610000000074,41.47028000000006]},"properties":{"id":"428","entityId":"428","name":"DERBENT ","IstAdi":"DERBENT ","SuAdi":"KIZILIRMAK N.","basinId":"15","riverName":"Kızılırmak","entityType":"hesRiverAnchors"}},{"type":"Feature","geometry":{"type":"Point","coordinates":[35.98611000000005,39.21806000000004]},"properties":{"id":"440","entityId":"440","name":"EĞERCİ","IstAdi":"EĞERCİ","SuAdi":"KIZILIRMAK","basinId":"15","riverName":"Kızılırmak","entityType":"hesRiverAnchors"}},{"type":"Feature","geometry":{"type":"Point","coordinates":[36.38500000000005,39.504170000000045]},"properties":{"id":"455","entityId":"455","name":"ÇERMİKLER","IstAdi":"ÇERMİKLER","SuAdi":"KIZILIRMAK","basinId":"15","riverName":"Kızılırmak","entityType":"hesRiverAnchors"}},{"type":"Feature","geometry":{"type":"Point","coordinates":[35.063060000000064,36.78472000000005]},"properties":{"id":"519","entityId":"519","name":"TUZLA","IstAdi":"TUZLA","SuAdi":"SEYHAN N.","basinId":"18","riverName":"Seyhan","entityType":"hesRiverAnchors"}},{"type":"Feature","geometry":{"type":"Point","coordinates":[36.08341000000007,37.19520000000006]},"properties":{"id":"543","entityId":"543","name":"HEMİTE KÖP.","IstAdi":"HEMİTE KÖP.","SuAdi":"CEYHAN N.","basinId":"20","riverName":"Ceyhan","entityType":"hesRiverAnchors"}},{"type":"Feature","geometry":{"type":"Point","coordinates":[39.466950000000054,38.16333000000003]},"properties":{"id":"573","entityId":"573","name":"BETON KÖPRÜ.","IstAdi":"BETON KÖPRÜ.","SuAdi":"ŞEYHAN. Ç.","basinId":"21","riverName":"Seyhan","entityType":"hesRiverAnchors"}},{"type":"Feature","geometry":{"type":"Point","coordinates":[38.023060000000044,36.86528000000004]},"properties":{"id":"590","entityId":"590","name":"KARKAMIŞ","IstAdi":"KARKAMIŞ","SuAdi":"FIRAT N.","basinId":"21","riverName":"Fırat","entityType":"hesRiverAnchors"}},{"type":"Feature","geometry":{"type":"Point","coordinates":[38.02722000000006,36.83222000000006]},"properties":{"id":"608","entityId":"608","name":"DDY KÖPRÜSÜ","IstAdi":"DDY KÖPRÜSÜ","SuAdi":"FIRAT N.","basinId":"21","riverName":"Fırat","entityType":"hesRiverAnchors"}},{"type":"Feature","geometry":{"type":"Point","coordinates":[40.787780000000055,40.27555000000007]},"properties":{"id":"696","entityId":"696","name":"DEĞİRMENLİ","IstAdi":"DEĞİRMENLİ","SuAdi":"ÇORUH Ç.","basinId":"23","riverName":"Çoruh","entityType":"hesRiverAnchors"}},{"type":"Feature","geometry":{"type":"Point","coordinates":[42.17389000000003,37.35194000000007]},"properties":{"id":"761","entityId":"761","name":"CİZRE","IstAdi":"CİZRE","SuAdi":"DİCLE N.","basinId":"21","riverName":"Dicle","entityType":"hesRiverAnchors"}},{"type":"Feature","geometry":{"type":"Point","coordinates":[41.83889000000005,37.51583000000005]},"properties":{"id":"765","entityId":"765","name":"ILISU BRJ","IstAdi":"ILISU BRJ","SuAdi":"DİCLE N.","basinId":"21","riverName":"Dicle","entityType":"hesRiverAnchors"}},{"type":"Feature","geometry":{"type":"Point","coordinates":[41.83889000000005,37.51583000000005]},"properties":{"id":"766","entityId":"766","name":"ILISU BRJ","IstAdi":"ILISU BRJ","SuAdi":"DİCLE NEHRİ","basinId":"21","riverName":"Dicle","entityType":"hesRiverAnchors"}},{"type":"Feature","geometry":{"type":"Point","coordinates":[31.33639000000005,39.32167000000004]},"properties":{"id":"866","entityId":"866","name":"AKTAŞ","IstAdi":"AKTAŞ","SuAdi":"SAKARYA N.","basinId":"12","riverName":"Sakarya","entityType":"hesRiverAnchors"}},{"type":"Feature","geometry":{"type":"Point","coordinates":[30.60194000000007,41.02472000000006]},"properties":{"id":"871","entityId":"871","name":"ADATEPE","IstAdi":"ADATEPE","SuAdi":"SAKARYA N.","basinId":"12","riverName":"Sakarya","entityType":"hesRiverAnchors"}},{"type":"Feature","geometry":{"type":"Point","coordinates":[30.072780000000023,40.238890000000026]},"properties":{"id":"872","entityId":"872","name":"KAYABELİ","IstAdi":"KAYABELİ","SuAdi":"SAKARYA N.","basinId":"12","riverName":"Sakarya","entityType":"hesRiverAnchors"}},{"type":"Feature","geometry":{"type":"Point","coordinates":[36.512500000000045,40.77167000000003]},"properties":{"id":"887","entityId":"887","name":"KALE","IstAdi":"KALE","SuAdi":"YEŞİLIRMAK","basinId":"14","riverName":"Yeşilırmak","entityType":"hesRiverAnchors"}},{"type":"Feature","geometry":{"type":"Point","coordinates":[36.11555000000004,40.43306000000007]},"properties":{"id":"889","entityId":"889","name":"SÜTLÜCE","IstAdi":"SÜTLÜCE","SuAdi":"YEŞİLIRMAK N.","basinId":"14","riverName":"Yeşilırmak","entityType":"hesRiverAnchors"}},{"type":"Feature","geometry":{"type":"Point","coordinates":[37.12861000000004,40.31167000000005]},"properties":{"id":"890","entityId":"890","name":"GÖMELEÖNÜ","IstAdi":"GÖMELEÖNÜ","SuAdi":"YEŞİLIRMAK N.","basinId":"14","riverName":"Yeşilırmak","entityType":"hesRiverAnchors"}},{"type":"Feature","geometry":{"type":"Point","coordinates":[36.84167000000008,39.71639000000005]},"properties":{"id":"899","entityId":"899","name":"SÖĞÜTLÜHAN","IstAdi":"SÖĞÜTLÜHAN","SuAdi":"KIZILIRMAK N.","basinId":"15","riverName":"Kızılırmak","entityType":"hesRiverAnchors"}},{"type":"Feature","geometry":{"type":"Point","coordinates":[37.56167000000005,39.87639000000007]},"properties":{"id":"901","entityId":"901","name":"BULAKBAŞI","IstAdi":"BULAKBAŞI","SuAdi":"KIZILIRMAK N.","basinId":"15","riverName":"Kızılırmak","entityType":"hesRiverAnchors"}},{"type":"Feature","geometry":{"type":"Point","coordinates":[34.50500000000005,41.07167000000004]},"properties":{"id":"903","entityId":"903","name":"KARAKÖY","IstAdi":"KARAKÖY","SuAdi":"KIZILIRMAK N.","basinId":"15","riverName":"Kızılırmak","entityType":"hesRiverAnchors"}},{"type":"Feature","geometry":{"type":"Point","coordinates":[35.63417000000004,36.95778000000007]},"properties":{"id":"932","entityId":"932","name":"MİSİS","IstAdi":"MİSİS","SuAdi":"CEYHAN N.","basinId":"20","riverName":"Ceyhan","entityType":"hesRiverAnchors"}},{"type":"Feature","geometry":{"type":"Point","coordinates":[38.72805000000005,38.80278000000004]},"properties":{"id":"939","entityId":"939","name":"KEBAN","IstAdi":"KEBAN","SuAdi":"FIRAT N.","basinId":"21","riverName":"Fırat","entityType":"hesRiverAnchors"}},{"type":"Feature","geometry":{"type":"Point","coordinates":[39.39305000000007,39.68250000000006]},"properties":{"id":"940","entityId":"940","name":"KEMAH BOĞAZI","IstAdi":"KEMAH BOĞAZI","SuAdi":"FIRAT N.","basinId":"21","riverName":"Fırat","entityType":"hesRiverAnchors"}},{"type":"Feature","geometry":{"type":"Point","coordinates":[40.17014000000006,39.57865000000004]},"properties":{"id":"945","entityId":"945","name":"DEMİRKAPI(SANSA BOĞAZI)","IstAdi":"DEMİRKAPI(SANSA BOĞAZI)","SuAdi":"FIRAT N.","basinId":"21","riverName":"Fırat","entityType":"hesRiverAnchors"}},{"type":"Feature","geometry":{"type":"Point","coordinates":[40.964600000000075,40.45922000000007]},"properties":{"id":"966","entityId":"966","name":"İSPİR KÖPRÜSÜ","IstAdi":"İSPİR KÖPRÜSÜ","SuAdi":"ÇORUH N.","basinId":"23","riverName":"Çoruh","entityType":"hesRiverAnchors"}},{"type":"Feature","geometry":{"type":"Point","coordinates":[39.70028000000008,38.342220000000054]},"properties":{"id":"981","entityId":"981","name":"KALENDER KÖPRÜ","IstAdi":"KALENDER KÖPRÜ","SuAdi":"DİCLE N.","basinId":"21","riverName":"Dicle","entityType":"hesRiverAnchors"}},{"type":"Feature","geometry":{"type":"Point","coordinates":[40.27111000000008,37.83889000000005]},"properties":{"id":"982","entityId":"982","name":"ZİYARET","IstAdi":"ZİYARET","SuAdi":"DİCLE N.","basinId":"21","riverName":"Dicle","entityType":"hesRiverAnchors"}},{"type":"Feature","geometry":{"type":"Point","coordinates":[28.899440000000027,37.867500000000064]},"properties":{"id":"1003","entityId":"1003","name":"ADIGÜZEL 2 HES CANSUYU","IstAdi":"ADIGÜZEL 2 HES CANSUYU","SuAdi":"BÜYÜK MENDERES NEHRİ","basinId":"7","riverName":"Büyük Menderes","entityType":"hesRiverAnchors"}},{"type":"Feature","geometry":{"type":"Point","coordinates":[30.195920000000058,40.03603000000004]},"properties":{"id":"1052","entityId":"1052","name":"DARCA HES CANSUYU","IstAdi":"DARCA HES CANSUYU","SuAdi":"SAKARYA NEHRİ","basinId":"12","riverName":"Sakarya","entityType":"hesRiverAnchors"}},{"type":"Feature","geometry":{"type":"Point","coordinates":[30.217900000000043,40.06126000000006]},"properties":{"id":"1053","entityId":"1053","name":"BÜKOR-II HES CAN SUYU","IstAdi":"BÜKOR-II HES CAN SUYU","SuAdi":"SAKARYA NEHRİ","basinId":"12","riverName":"Sakarya","entityType":"hesRiverAnchors"}},{"type":"Feature","geometry":{"type":"Point","coordinates":[30.316770000000076,40.538850000000025]},"properties":{"id":"1054","entityId":"1054","name":"DOĞANÇAY I HES CANSUYU","IstAdi":"DOĞANÇAY I HES CANSUYU","SuAdi":"SAKARYA NEHRİ","basinId":"12","riverName":"Sakarya","entityType":"hesRiverAnchors"}},{"type":"Feature","geometry":{"type":"Point","coordinates":[30.294800000000066,40.51276000000007]},"properties":{"id":"1055","entityId":"1055","name":"DOĞANÇAY II HES CANSUYU","IstAdi":"DOĞANÇAY II HES CANSUYU","SuAdi":"SAKARYA NEHRİ","basinId":"12","riverName":"Sakarya","entityType":"hesRiverAnchors"}},{"type":"Feature","geometry":{"type":"Point","coordinates":[30.20279000000005,40.500230000000045]},"properties":{"id":"1056","entityId":"1056","name":"PAMUKOVA HES CAN SUYU","IstAdi":"PAMUKOVA HES CAN SUYU","SuAdi":"SAKARYA NEHRİ","basinId":"12","riverName":"Sakarya","entityType":"hesRiverAnchors"}},{"type":"Feature","geometry":{"type":"Point","coordinates":[30.703130000000044,40.07150000000007]},"properties":{"id":"1057","entityId":"1057","name":"ADASU HES CANSUYU","IstAdi":"ADASU HES CANSUYU","SuAdi":"SAKARYA NEHRİ","basinId":"12","riverName":"Sakarya","entityType":"hesRiverAnchors"}},{"type":"Feature","geometry":{"type":"Point","coordinates":[30.525510000000054,39.88445000000007]},"properties":{"id":"1058","entityId":"1058","name":"BEYKÖY HES CANSUYU","IstAdi":"BEYKÖY HES CANSUYU","SuAdi":"SAKARYA NEHRİ","basinId":"12","riverName":"Sakarya","entityType":"hesRiverAnchors"}},{"type":"Feature","geometry":{"type":"Point","coordinates":[37.735550000000046,40.15805000000006]},"properties":{"id":"1103","entityId":"1103","name":"YEŞİL HES CANSUYU","IstAdi":"YEŞİL HES CANSUYU","SuAdi":"YEŞİLIRMAK N.","basinId":"14","riverName":"Yeşilırmak","entityType":"hesRiverAnchors"}},{"type":"Feature","geometry":{"type":"Point","coordinates":[36.07195000000007,40.45667000000003]},"properties":{"id":"1114","entityId":"1114","name":"KARAKEÇİLİ-1 HES CANSUYU AGİ","IstAdi":"KARAKEÇİLİ-1 HES CANSUYU AGİ","SuAdi":"YEŞİLIRMAK N.","basinId":"14","riverName":"Yeşilırmak","entityType":"hesRiverAnchors"}},{"type":"Feature","geometry":{"type":"Point","coordinates":[36.79556000000008,40.43917000000005]},"properties":{"id":"1117","entityId":"1117","name":"OMALA HES CANSUYU AGİ","IstAdi":"OMALA HES CANSUYU AGİ","SuAdi":"YEŞİLIRMAK","basinId":"14","riverName":"Yeşilırmak","entityType":"hesRiverAnchors"}},{"type":"Feature","geometry":{"type":"Point","coordinates":[36.03917000000007,40.74556000000007]},"properties":{"id":"1121","entityId":"1121","name":"KALE HES CANSUYU ","IstAdi":"KALE HES CANSUYU ","SuAdi":"YEŞİLIRMAK N.","basinId":"14","riverName":"Yeşilırmak","entityType":"hesRiverAnchors"}},{"type":"Feature","geometry":{"type":"Point","coordinates":[36.72472000000005,41.19861000000003]},"properties":{"id":"1123","entityId":"1123","name":"KUMKÖY HES VE ÇARŞAMBA HES CANSUYU","IstAdi":"KUMKÖY HES VE ÇARŞAMBA HES CANSUYU","SuAdi":"YEŞİLIRMAK NEHRI","basinId":"14","riverName":"Yeşilırmak","entityType":"hesRiverAnchors"}},{"type":"Feature","geometry":{"type":"Point","coordinates":[36.150000000000034,40.73583000000008]},"properties":{"id":"1139","entityId":"1139","name":"YAVUZ HES CANSUYU AGİ","IstAdi":"YAVUZ HES CANSUYU AGİ","SuAdi":"YEŞİLIRMAK NEHRİ","basinId":"14","riverName":"Yeşilırmak","entityType":"hesRiverAnchors"}},{"type":"Feature","geometry":{"type":"Point","coordinates":[36.11945000000003,40.74139000000008]},"properties":{"id":"1140","entityId":"1140","name":"OSMANCIK HES CAN SUYU (ESKİ)","IstAdi":"OSMANCIK HES CAN SUYU (ESKİ)","SuAdi":"YEŞİLIRMAK N.","basinId":"14","riverName":"Yeşilırmak","entityType":"hesRiverAnchors"}},{"type":"Feature","geometry":{"type":"Point","coordinates":[36.12333000000007,40.741940000000056]},"properties":{"id":"1141","entityId":"1141","name":"OSMANCIK HES CANSUYU -YAVUZ HES ANAYATAK AGİ","IstAdi":"OSMANCIK HES CANSUYU -YAVUZ HES ANAYATAK AGİ","SuAdi":"YEŞİLIRMAK N.","basinId":"14","riverName":"Yeşilırmak","entityType":"hesRiverAnchors"}},{"type":"Feature","geometry":{"type":"Point","coordinates":[37.650000000000034,40.31556000000006]},"properties":{"id":"1146","entityId":"1146","name":"ÇİLEHANE HES CANSUYU AGİ","IstAdi":"ÇİLEHANE HES CANSUYU AGİ","SuAdi":"YEŞİLIRMAK","basinId":"14","riverName":"Yeşilırmak","entityType":"hesRiverAnchors"}},{"type":"Feature","geometry":{"type":"Point","coordinates":[36.36889000000008,40.738060000000075]},"properties":{"id":"1147","entityId":"1147","name":"UMUTLU HES CANSUYU AGİ","IstAdi":"UMUTLU HES CANSUYU AGİ","SuAdi":"YEŞİLIRMAK NEHIRI","basinId":"14","riverName":"Yeşilırmak","entityType":"hesRiverAnchors"}},{"type":"Feature","geometry":{"type":"Point","coordinates":[35.88833000000005,40.49472000000003]},"properties":{"id":"1151","entityId":"1151","name":"ÇARIKLI HES CANSUYU AGİ","IstAdi":"ÇARIKLI HES CANSUYU AGİ","SuAdi":"YEŞİLIRMAK N.","basinId":"14","riverName":"Yeşilırmak","entityType":"hesRiverAnchors"}},{"type":"Feature","geometry":{"type":"Point","coordinates":[36.87500000000006,40.42500000000007]},"properties":{"id":"1152","entityId":"1152","name":"ALMUS+ATAKÖY HES CANSUYU AGİ","IstAdi":"ALMUS+ATAKÖY HES CANSUYU AGİ","SuAdi":"YEŞİLIRMAK N.","basinId":"14","riverName":"Yeşilırmak","entityType":"hesRiverAnchors"}},{"type":"Feature","geometry":{"type":"Point","coordinates":[36.92778000000004,40.49361000000005]},"properties":{"id":"1153","entityId":"1153","name":"KÖKLÜCE HES SANTRAL KUYRUKSUYU ÇIKIŞI AGİ","IstAdi":"KÖKLÜCE HES SANTRAL KUYRUKSUYU ÇIKIŞI AGİ","SuAdi":"YEŞİLIRMAK N.","basinId":"14","riverName":"Yeşilırmak","entityType":"hesRiverAnchors"}},{"type":"Feature","geometry":{"type":"Point","coordinates":[33.38778000000008,39.42861000000005]},"properties":{"id":"1164","entityId":"1164","name":"SEMA REG. VE HES","IstAdi":"SEMA REG. VE HES","SuAdi":"KIZILIRMAK","basinId":"15","riverName":"Kızılırmak","entityType":"hesRiverAnchors"}},{"type":"Feature","geometry":{"type":"Point","coordinates":[33.51917000000003,40.119170000000054]},"properties":{"id":"1165","entityId":"1165","name":"ÇEŞMEBAŞI REG. HES","IstAdi":"ÇEŞMEBAŞI REG. HES","SuAdi":"KIZILIRMAK","basinId":"15","riverName":"Kızılırmak","entityType":"hesRiverAnchors"}},{"type":"Feature","geometry":{"type":"Point","coordinates":[33.56194000000005,40.162780000000055]},"properties":{"id":"1166","entityId":"1166","name":"HAMZALI REG. HES","IstAdi":"HAMZALI REG. HES","SuAdi":"KIZILIRMAK","basinId":"15","riverName":"Kızılırmak","entityType":"hesRiverAnchors"}},{"type":"Feature","geometry":{"type":"Point","coordinates":[34.802220000000034,40.783330000000035]},"properties":{"id":"1167","entityId":"1167","name":"PİRİNÇLİ REG. HES","IstAdi":"PİRİNÇLİ REG. HES","SuAdi":"KIZILIRMAK","basinId":"15","riverName":"Kızılırmak","entityType":"hesRiverAnchors"}},{"type":"Feature","geometry":{"type":"Point","coordinates":[34.233610000000056,40.473610000000065]},"properties":{"id":"1169","entityId":"1169","name":"ÜLKÜN-1 HES (CAN SUYU)","IstAdi":"ÜLKÜN-1 HES (CAN SUYU)","SuAdi":"KIZILIRMAK NEHRİ","basinId":"15","riverName":"Kızılırmak","entityType":"hesRiverAnchors"}},{"type":"Feature","geometry":{"type":"Point","coordinates":[34.651110000000074,41.00000000000006]},"properties":{"id":"1170","entityId":"1170","name":"KARGI HES (CAN SUYU)","IstAdi":"KARGI HES (CAN SUYU)","SuAdi":"KIZILIRMAK NEHRİ","basinId":"15","riverName":"Kızılırmak","entityType":"hesRiverAnchors"}},{"type":"Feature","geometry":{"type":"Point","coordinates":[34.65250000000003,40.99556000000007]},"properties":{"id":"1171","entityId":"1171","name":"KARGI HES (BALIK GEÇİDİ)","IstAdi":"KARGI HES (BALIK GEÇİDİ)","SuAdi":"KIZILIRMAK NEHRİ","basinId":"15","riverName":"Kızılırmak","entityType":"hesRiverAnchors"}},{"type":"Feature","geometry":{"type":"Point","coordinates":[34.387500000000045,40.550830000000076]},"properties":{"id":"1172","entityId":"1172","name":"ÜLKÜN-2 HES","IstAdi":"ÜLKÜN-2 HES","SuAdi":"KIZILIRMAK NEHRİ","basinId":"15","riverName":"Kızılırmak","entityType":"hesRiverAnchors"}},{"type":"Feature","geometry":{"type":"Point","coordinates":[36.25028000000003,39.38250000000005]},"properties":{"id":"1173","entityId":"1173","name":"SARAÇBENDİ HES CANSUYU","IstAdi":"SARAÇBENDİ HES CANSUYU","SuAdi":"KIZILIRMAK N.","basinId":"15","riverName":"Kızılırmak","entityType":"hesRiverAnchors"}},{"type":"Feature","geometry":{"type":"Point","coordinates":[33.44444000000004,40.04194000000007]},"properties":{"id":"1178","entityId":"1178","name":"KALECİK HES","IstAdi":"KALECİK HES","SuAdi":"KIZILIRMAK","basinId":"15","riverName":"Kızılırmak","entityType":"hesRiverAnchors"}},{"type":"Feature","geometry":{"type":"Point","coordinates":[34.776940000000025,41.467220000000054]},"properties":{"id":"1180","entityId":"1180","name":"BOYABAT HES CANSUYU","IstAdi":"BOYABAT HES CANSUYU","SuAdi":"KIZILIRMAK N.","basinId":"15","riverName":"Kızılırmak","entityType":"hesRiverAnchors"}},{"type":"Feature","geometry":{"type":"Point","coordinates":[34.55194000000006,38.77889000000005]},"properties":{"id":"1181","entityId":"1181","name":"TUZKÖYHES CANSUYU","IstAdi":"TUZKÖYHES CANSUYU","SuAdi":"KIZILIRMAK N.","basinId":"15","riverName":"Kızılırmak","entityType":"hesRiverAnchors"}},{"type":"Feature","geometry":{"type":"Point","coordinates":[35.22445000000005,38.85722000000004]},"properties":{"id":"1183","entityId":"1183","name":"AKINCI-2 HES CANSUYU","IstAdi":"AKINCI-2 HES CANSUYU","SuAdi":"KIZILIRMAK","basinId":"15","riverName":"Kızılırmak","entityType":"hesRiverAnchors"}},{"type":"Feature","geometry":{"type":"Point","coordinates":[34.84863000000007,38.71623000000005]},"properties":{"id":"1184","entityId":"1184","name":"SARIHIDIR HES CANSUYU İST.","IstAdi":"SARIHIDIR HES CANSUYU İST.","SuAdi":"KIZILIRMAK N.","basinId":"15","riverName":"Kızılırmak","entityType":"hesRiverAnchors"}},{"type":"Feature","geometry":{"type":"Point","coordinates":[33.97222000000005,40.34639000000004]},"properties":{"id":"1186","entityId":"1186","name":"TIMARLI REG. VE HES","IstAdi":"TIMARLI REG. VE HES","SuAdi":"KIZILIRMAK NEHRİ","basinId":"15","riverName":"Kızılırmak","entityType":"hesRiverAnchors"}},{"type":"Feature","geometry":{"type":"Point","coordinates":[35.919800000000066,41.60723000000007]},"properties":{"id":"1187","entityId":"1187","name":"DERBENT BARAJI CANSUYU AGİ","IstAdi":"DERBENT BARAJI CANSUYU AGİ","SuAdi":"KIZILIRMAK NEHRİ","basinId":"15","riverName":"Kızılırmak","entityType":"hesRiverAnchors"}},{"type":"Feature","geometry":{"type":"Point","coordinates":[35.81543000000005,37.48939000000007]},"properties":{"id":"1232","entityId":"1232","name":"KAVŞAKBENDİ HES","IstAdi":"KAVŞAKBENDİ HES","SuAdi":"SEYHAN NEHRİ","basinId":"20","riverName":"Seyhan","entityType":"hesRiverAnchors"}},{"type":"Feature","geometry":{"type":"Point","coordinates":[37.188720000000046,38.26550000000003]},"properties":{"id":"1261","entityId":"1261","name":"DAĞDELEN HES CANSUYU","IstAdi":"DAĞDELEN HES CANSUYU","SuAdi":"CEYHAN N.","basinId":"20","riverName":"Ceyhan","entityType":"hesRiverAnchors"}},{"type":"Feature","geometry":{"type":"Point","coordinates":[36.96305000000007,37.873890000000074]},"properties":{"id":"1265","entityId":"1265","name":"HACININOĞLU HES CANSUYU","IstAdi":"HACININOĞLU HES CANSUYU","SuAdi":"CEYHAN N.","basinId":"20","riverName":"Ceyhan","entityType":"hesRiverAnchors"}},{"type":"Feature","geometry":{"type":"Point","coordinates":[37.188720000000046,38.06035000000003]},"properties":{"id":"1267","entityId":"1267","name":"KANDİL HES CANSUYU","IstAdi":"KANDİL HES CANSUYU","SuAdi":"CEYHAN N.","basinId":"20","riverName":"Ceyhan","entityType":"hesRiverAnchors"}},{"type":"Feature","geometry":{"type":"Point","coordinates":[36.809690000000046,37.64178000000004]},"properties":{"id":"1268","entityId":"1268","name":"SARIGÜZEL HES CANSUYU","IstAdi":"SARIGÜZEL HES CANSUYU","SuAdi":"CEYHAN N.","basinId":"20","riverName":"Ceyhan","entityType":"hesRiverAnchors"}},{"type":"Feature","geometry":{"type":"Point","coordinates":[38.565000000000055,39.47639000000004]},"properties":{"id":"1330","entityId":"1330","name":"BAĞIŞTAŞ-2 BARAJ VE HES CANSUYU","IstAdi":"BAĞIŞTAŞ-2 BARAJ VE HES CANSUYU","SuAdi":"FIRAT NEHRİ","basinId":"21","riverName":"Fırat","entityType":"hesRiverAnchors"}},{"type":"Feature","geometry":{"type":"Point","coordinates":[41.293330000000026,40.67694000000006]},"properties":{"id":"1571","entityId":"1571","name":"ARKUN BARAJI VE HES CANSUYU","IstAdi":"ARKUN BARAJI VE HES CANSUYU","SuAdi":"ÇORUH NEHRİ","basinId":"23","riverName":"Çoruh","entityType":"hesRiverAnchors"}},{"type":"Feature","geometry":{"type":"Point","coordinates":[41.924720000000036,40.76361000000003]},"properties":{"id":"1573","entityId":"1573","name":"AYVALI BARAJI VE HES SULAMA SUYU/KANAL","IstAdi":"AYVALI BARAJI VE HES SULAMA SUYU/KANAL","SuAdi":"ÇORUH NEHRİ","basinId":"23","riverName":"Çoruh","entityType":"hesRiverAnchors"}},{"type":"Feature","geometry":{"type":"Point","coordinates":[41.025000000000034,40.52417000000003]},"properties":{"id":"1577","entityId":"1577","name":"GÜLLÜBAĞ BARAJI VE HES CANSUYU","IstAdi":"GÜLLÜBAĞ BARAJI VE HES CANSUYU","SuAdi":"ÇORUH NEHRİ   İSPİR","basinId":"23","riverName":"Çoruh","entityType":"hesRiverAnchors"}},{"type":"Feature","geometry":{"type":"Point","coordinates":[40.712500000000034,40.25472000000008]},"properties":{"id":"1590","entityId":"1590","name":"YANIKKÖPRÜ REG VE HES ","IstAdi":"YANIKKÖPRÜ REG VE HES ","SuAdi":"ÇORUH.N. CANSUYU","basinId":"23","riverName":"Çoruh","entityType":"hesRiverAnchors"}},{"type":"Feature","geometry":{"type":"Point","coordinates":[40.22095000000007,40.29350000000005]},"properties":{"id":"1595","entityId":"1595","name":"BAYBURT HELVA CANSUYU","IstAdi":"BAYBURT HELVA CANSUYU","SuAdi":"CORUH NEHRİ","basinId":"23","riverName":"Çoruh","entityType":"hesRiverAnchors"}},{"type":"Feature","geometry":{"type":"Point","coordinates":[40.22095000000007,40.301870000000065]},"properties":{"id":"1597","entityId":"1597","name":"YILDIRIM CANSUYU","IstAdi":"YILDIRIM CANSUYU","SuAdi":"CORUH NEHRİ","basinId":"23","riverName":"Çoruh","entityType":"hesRiverAnchors"}}]}