{"type":"FeatureCollection","features":[{"type":"Feature","id":"cascade-hes177-014-hes177-058","geometry":{"type":"LineString","coordinates":[[35.724167,41.363333],[35.84174,41.46121]]},"properties":{"fromId":"hes177-014","toId":"hes177-058","fromName":"ALTINKAYA HES","toName":"DERBENT HES","entityType":"cascade"}},{"type":"Feature","id":"cascade-hes177-040-hes177-014","geometry":{"type":"LineString","coordinates":[[34.99575,41.33471],[35.724167,41.363333]]},"properties":{"fromId":"hes177-040","toId":"hes177-014","fromName":"BOYABAT HES","toName":"ALTINKAYA HES","entityType":"cascade"}},{"type":"Feature","id":"cascade-hes177-048-hes177-142","geometry":{"type":"LineString","coordinates":[[35.28179,37.19874],[35.34139,37.03695]]},"properties":{"fromId":"hes177-048","toId":"hes177-142","fromName":"ÇATALAN HES","toName":"SEYHAN 1 HES","entityType":"cascade"}},{"type":"Feature","id":"cascade-hes177-070-hes177-126","geometry":{"type":"LineString","coordinates":[[35.8652,37.7449],[35.7348,37.7097]]},"properties":{"fromId":"hes177-070","toId":"hes177-126","fromName":"FEKE2 HES","toName":"MENGE HES","entityType":"cascade"}},{"type":"Feature","id":"cascade-hes177-083-hes177-148","geometry":{"type":"LineString","coordinates":[[36.64676,40.93654],[36.67091,41.07479]]},"properties":{"fromId":"hes177-083","toId":"hes177-148","fromName":"HASAN UĞURLU HES","toName":"SUAT UĞURLU HES","entityType":"cascade"}},{"type":"Feature","id":"cascade-hes177-084-hes177-107","geometry":{"type":"LineString","coordinates":[[33.51871,39.2728],[33.42084,39.39565]]},"properties":{"fromId":"hes177-084","toId":"hes177-107","fromName":"HİRFANLI HES","toName":"KESİKKÖPRÜ","entityType":"cascade"}},{"type":"Feature","id":"cascade-hes177-093-hes177-025","geometry":{"type":"LineString","coordinates":[[39.135556,38.226389],[38.3175,37.481667]]},"properties":{"fromId":"hes177-093","toId":"hes177-025","fromName":"KARAKAYA HES DİYARBAKIR","toName":"ATATÜRK HES","entityType":"cascade"}},{"type":"Feature","id":"cascade-hes177-103-hes177-137","geometry":{"type":"LineString","coordinates":[[35.5294,37.562578],[35.445297,37.401506]]},"properties":{"fromId":"hes177-103","toId":"hes177-137","fromName":"KAVŞAKBENDİ HES","toName":"SANİBEY HES","entityType":"cascade"}},{"type":"Feature","id":"cascade-hes177-107-hes177-090","geometry":{"type":"LineString","coordinates":[[33.42084,39.39565],[33.48299,39.73053]]},"properties":{"fromId":"hes177-107","toId":"hes177-090","fromName":"KESİKKÖPRÜ","toName":"KAPULUKAYA HES","entityType":"cascade"}},{"type":"Feature","id":"cascade-hes177-108-hes177-145","geometry":{"type":"LineString","coordinates":[[36.80339,37.62661],[36.5968,37.501]]},"properties":{"fromId":"hes177-108","toId":"hes177-145","fromName":"KILAVUZLU HES","toName":"SIR HES","entityType":"cascade"}},{"type":"Feature","id":"cascade-hes177-120-hes177-103","geometry":{"type":"LineString","coordinates":[[35.613631,37.6202],[35.5294,37.562578]]},"properties":{"fromId":"hes177-120","toId":"hes177-103","fromName":"KÖPRÜ HES","toName":"KAVŞAKBENDİ HES","entityType":"cascade"}},{"type":"Feature","id":"cascade-hes177-126-hes177-120","geometry":{"type":"LineString","coordinates":[[35.7348,37.7097],[35.613631,37.6202]]},"properties":{"fromId":"hes177-126","toId":"hes177-120","fromName":"MENGE HES","toName":"KÖPRÜ HES","entityType":"cascade"}},{"type":"Feature","id":"cascade-hes177-127-hes177-108","geometry":{"type":"LineString","coordinates":[[36.8504,37.6765],[36.80339,37.62661]]},"properties":{"fromId":"hes177-127","toId":"hes177-108","fromName":"MENZELET HES","toName":"KILAVUZLU HES","entityType":"cascade"}},{"type":"Feature","id":"cascade-hes177-137-hes177-048","geometry":{"type":"LineString","coordinates":[[35.445297,37.401506],[35.28179,37.19874]]},"properties":{"fromId":"hes177-137","toId":"hes177-048","fromName":"SANİBEY HES","toName":"ÇATALAN HES","entityType":"cascade"}},{"type":"Feature","id":"cascade-hes177-138-hes177-127","geometry":{"type":"LineString","coordinates":[[36.925392,37.56744],[36.8504,37.6765]]},"properties":{"fromId":"hes177-138","toId":"hes177-127","fromName":"SARIGÜZEL HES","toName":"MENZELET HES","entityType":"cascade"}}]}