{"type":"FeatureCollection","features":[{"type":"Feature","id":"4","geometry":{"type":"Point","coordinates":[28.773000000000025,40.015550000000076]},"properties":{"OBJECTID":4,"BolgeNo":1,"Il":"BURSA","HavzaAdi":"Susurluk","BarajAdi":"ÇINARCIK","ILKODU":16,"ILCEKODU":1535,"HAVZA_ID":3,"entityId":"dam177-4","entityType":"dams","id":"dam177-4","name":"ÇINARCIK","damName":"ÇINARCIK","basinId":3,"occupancy":null,"status":"no_data","color":"#94a3b8","radius":8,"sourceId":"4","riverName":null,"hes177":true,"linkedHesIds":["hes177-164"],"isProducer":true}},{"type":"Feature","id":"6","geometry":{"type":"Point","coordinates":[28.56126000000006,39.91964000000007]},"properties":{"OBJECTID":6,"BolgeNo":1,"Il":"BURSA","HavzaAdi":"Susurluk","BarajAdi":"DEVECİKONAĞI","ILKODU":16,"ILCEKODU":1535,"HAVZA_ID":3,"entityId":"dam177-6","entityType":"dams","id":"dam177-6","name":"DEVECİKONAĞI","damName":"DEVECİKONAĞI","basinId":3,"occupancy":null,"status":"no_data","color":"#94a3b8","radius":8,"sourceId":"6","riverName":null,"hes177":true,"linkedHesIds":["hes177-060"],"isProducer":true}},{"type":"Feature","id":"28","geometry":{"type":"Point","coordinates":[28.31194000000005,38.616940000000056]},"properties":{"OBJECTID":28,"BolgeNo":2,"Il":"MANİSA","HavzaAdi":"Gediz","BarajAdi":"DEMİRKÖPRÜ","ILKODU":45,"ILCEKODU":1590,"HAVZA_ID":5,"entityId":"dam177-28","entityType":"dams","id":"dam177-28","name":"DEMİRKÖPRÜ","damName":"DEMİRKÖPRÜ","basinId":5,"occupancy":null,"status":"no_data","color":"#94a3b8","radius":8,"sourceId":"28","riverName":"Gediz","hes177":true,"linkedHesIds":["hes177-057"],"isProducer":true}},{"type":"Feature","id":"33","geometry":{"type":"Point","coordinates":[31.896630000000073,39.83355000000006]},"properties":{"OBJECTID":33,"BolgeNo":3,"Il":"ANKARA","HavzaAdi":"Sakarya","BarajAdi":"GÜRSÖĞÜT-1 BARAJI","ILKODU":6,"ILCEKODU":1578,"HAVZA_ID":12,"entityId":"dam177-33","entityType":"dams","id":"dam177-33","name":"GÜRSÖĞÜT-1 BARAJI","damName":"GÜRSÖĞÜT-1 BARAJI","basinId":12,"occupancy":null,"status":"no_data","color":"#94a3b8","radius":8,"sourceId":"33","riverName":"Sakarya","hes177":true,"linkedHesIds":["hes177-080"],"isProducer":true}},{"type":"Feature","id":"41","geometry":{"type":"Point","coordinates":[31.01610000000005,40.033300000000054]},"properties":{"OBJECTID":41,"BolgeNo":3,"Il":"ESKİŞEHİR","HavzaAdi":"Sakarya","BarajAdi":"GÖKÇEKAYA","ILKODU":6,"ILCEKODU":1539,"HAVZA_ID":12,"entityId":"dam177-41","entityType":"dams","id":"dam177-41","name":"GÖKÇEKAYA","damName":"GÖKÇEKAYA","basinId":12,"occupancy":null,"status":"no_data","color":"#94a3b8","radius":8,"sourceId":"41","riverName":"Sakarya","hes177":true,"linkedHesIds":["hes177-073"],"isProducer":true}},{"type":"Feature","id":"45","geometry":{"type":"Point","coordinates":[]},"properties":{"OBJECTID":45,"BolgeNo":3,"Il":"ESKİŞEHİR","HavzaAdi":"Sakarya","BarajAdi":"SARIYAR","ILKODU":26,"ILCEKODU":null,"HAVZA_ID":12,"entityId":"dam177-45","entityType":"dams","id":"dam177-45","name":"SARIYAR","damName":"SARIYAR","basinId":12,"occupancy":null,"status":"no_data","color":"#94a3b8","radius":8,"sourceId":"45","riverName":"Sakarya","hes177":true,"linkedHesIds":["hes177-140"],"isProducer":true}},{"type":"Feature","id":"46","geometry":{"type":"Point","coordinates":[30.856300000000033,40.06310000000008]},"properties":{"OBJECTID":46,"BolgeNo":3,"Il":"ESKİŞEHİR","HavzaAdi":"Sakarya","BarajAdi":"YENİCE","ILKODU":26,"ILCEKODU":1759,"HAVZA_ID":12,"entityId":"dam177-46","entityType":"dams","id":"dam177-46","name":"YENİCE","damName":"YENİCE","basinId":12,"occupancy":null,"status":"no_data","color":"#94a3b8","radius":8,"sourceId":"46","riverName":"Sakarya","hes177":true,"linkedHesIds":["hes177-174"],"isProducer":true}},{"type":"Feature","id":"53","geometry":{"type":"Point","coordinates":[33.19288000000006,36.53015000000005]},"properties":{"OBJECTID":53,"BolgeNo":4,"Il":"İÇEL","HavzaAdi":"Doğu Akdeniz","BarajAdi":"GEZENDE","ILKODU":70,"ILCEKODU":1316,"HAVZA_ID":17,"entityId":"dam177-53","entityType":"dams","id":"dam177-53","name":"GEZENDE","damName":"GEZENDE","basinId":17,"occupancy":null,"status":"no_data","color":"#94a3b8","radius":8,"sourceId":"53","riverName":null,"hes177":true,"linkedHesIds":["hes177-072"],"isProducer":true}},{"type":"Feature","id":"54","geometry":{"type":"Point","coordinates":[32.96389000000005,36.70389000000006]},"properties":{"OBJECTID":54,"BolgeNo":4,"Il":"KARAMAN","HavzaAdi":"Doğu Akdeniz","BarajAdi":"BALKUSAN","ILKODU":70,"ILCEKODU":1316,"HAVZA_ID":17,"entityId":"dam177-54","entityType":"dams","id":"dam177-54","name":"BALKUSAN","damName":"BALKUSAN","basinId":17,"occupancy":null,"status":"no_data","color":"#94a3b8","radius":8,"sourceId":"54","riverName":null,"hes177":true,"linkedHesIds":["hes177-030"],"isProducer":true}},{"type":"Feature","id":"55","geometry":{"type":"Point","coordinates":[]},"properties":{"OBJECTID":55,"BolgeNo":4,"Il":"KARAMAN","HavzaAdi":"Doğu Akdeniz","BarajAdi":"ERMENEK","ILKODU":70,"ILCEKODU":null,"HAVZA_ID":17,"entityId":"dam177-55","entityType":"dams","id":"dam177-55","name":"ERMENEK","damName":"ERMENEK","basinId":17,"occupancy":null,"status":"no_data","color":"#94a3b8","radius":8,"sourceId":"55","riverName":null,"hes177":true,"linkedHesIds":["hes177-068"],"isProducer":true}},{"type":"Feature","id":"70","geometry":{"type":"Point","coordinates":[33.518710000000056,39.272800000000075]},"properties":{"OBJECTID":70,"BolgeNo":5,"Il":"ANKARA","HavzaAdi":"Kızılırmak","BarajAdi":"HİRFANLI","ILKODU":40,"ILCEKODU":1429,"HAVZA_ID":15,"entityId":"dam177-70","entityType":"dams","id":"dam177-70","name":"HİRFANLI","damName":"HİRFANLI","basinId":15,"occupancy":null,"status":"no_data","color":"#94a3b8","radius":8,"sourceId":"70","riverName":"Kızılırmak","hes177":true,"linkedHesIds":["hes177-084"],"isProducer":true}},{"type":"Feature","id":"72","geometry":{"type":"Point","coordinates":[33.420840000000055,39.395650000000046]},"properties":{"OBJECTID":72,"BolgeNo":5,"Il":"ANKARA","HavzaAdi":"Kızılırmak","BarajAdi":"KESİKKÖPRÜ","ILKODU":6,"ILCEKODU":1167,"HAVZA_ID":15,"entityId":"dam177-72","entityType":"dams","id":"dam177-72","name":"KESİKKÖPRÜ","damName":"KESİKKÖPRÜ","basinId":15,"occupancy":null,"status":"no_data","color":"#94a3b8","radius":8,"sourceId":"72","riverName":"Kızılırmak","hes177":true,"linkedHesIds":["hes177-107"],"isProducer":true}},{"type":"Feature","id":"85","geometry":{"type":"Point","coordinates":[31.904000000000053,40.986330000000066]},"properties":{"OBJECTID":85,"BolgeNo":5,"Il":"BOLU","HavzaAdi":"Batı Karadeniz","BarajAdi":"KÖPRÜBAŞI","ILKODU":14,"ILCEKODU":1522,"HAVZA_ID":13,"entityId":"dam177-85","entityType":"dams","id":"dam177-85","name":"KÖPRÜBAŞI","damName":"KÖPRÜBAŞI","basinId":13,"occupancy":null,"status":"no_data","color":"#94a3b8","radius":8,"sourceId":"85","riverName":"Kızılırmak","hes177":true,"linkedHesIds":["hes177-119"],"isProducer":true}},{"type":"Feature","id":"89","geometry":{"type":"Point","coordinates":[34.78817000000004,40.770200000000045]},"properties":{"OBJECTID":89,"BolgeNo":5,"Il":"ÇORUM","HavzaAdi":"Kızılırmak","BarajAdi":"OBRUK","ILKODU":19,"ILCEKODU":1911,"HAVZA_ID":15,"entityId":"dam177-89","entityType":"dams","id":"dam177-89","name":"OBRUK","damName":"OBRUK","basinId":15,"occupancy":null,"status":"no_data","color":"#94a3b8","radius":8,"sourceId":"89","riverName":"Kızılırmak","hes177":true,"linkedHesIds":["hes177-132"],"isProducer":true}},{"type":"Feature","id":"96","geometry":{"type":"Point","coordinates":[31.276410000000055,40.910510000000045]},"properties":{"OBJECTID":96,"BolgeNo":5,"Il":"DÜZCE","HavzaAdi":"Batı Karadeniz","BarajAdi":"HASANLAR","ILKODU":81,"ILCEKODU":1292,"HAVZA_ID":13,"entityId":"dam177-96","entityType":"dams","id":"dam177-96","name":"HASANLAR","damName":"HASANLAR","basinId":13,"occupancy":null,"status":"no_data","color":"#94a3b8","radius":8,"sourceId":"96","riverName":"Kızılırmak","hes177":true,"linkedHesIds":["hes177-082"],"isProducer":true}},{"type":"Feature","id":"97","geometry":{"type":"Point","coordinates":[33.48299000000003,39.730530000000044]},"properties":{"OBJECTID":97,"BolgeNo":5,"Il":"KIRIKKALE","HavzaAdi":"Kızılırmak","BarajAdi":"KAPULUKAYA","ILKODU":71,"ILCEKODU":1469,"HAVZA_ID":15,"entityId":"dam177-97","entityType":"dams","id":"dam177-97","name":"KAPULUKAYA","damName":"KAPULUKAYA","basinId":15,"occupancy":null,"status":"no_data","color":"#94a3b8","radius":8,"sourceId":"97","riverName":"Kızılırmak","hes177":true,"linkedHesIds":["hes177-090"],"isProducer":true}},{"type":"Feature","id":"99","geometry":{"type":"Point","coordinates":[36.27156000000008,37.27290000000005]},"properties":{"OBJECTID":99,"BolgeNo":6,"Il":"ADANA","HavzaAdi":"Ceyhan","BarajAdi":"ASLANTAŞ","ILKODU":80,"ILCEKODU":1743,"HAVZA_ID":20,"entityId":"dam177-99","entityType":"dams","id":"dam177-99","name":"ASLANTAŞ","damName":"ASLANTAŞ","basinId":20,"occupancy":null,"status":"no_data","color":"#94a3b8","radius":8,"sourceId":"99","riverName":"Ceyhan","hes177":true,"linkedHesIds":["hes177-022"],"isProducer":true}},{"type":"Feature","id":"101","geometry":{"type":"Point","coordinates":[35.28179000000006,37.19874000000004]},"properties":{"OBJECTID":101,"BolgeNo":6,"Il":"ADANA","HavzaAdi":"Seyhan","BarajAdi":"ÇATALAN","ILKODU":1,"ILCEKODU":1437,"HAVZA_ID":18,"entityId":"dam177-101","entityType":"dams","id":"dam177-101","name":"ÇATALAN","damName":"ÇATALAN","basinId":18,"occupancy":null,"status":"no_data","color":"#94a3b8","radius":8,"sourceId":"101","riverName":"Seyhan","hes177":true,"linkedHesIds":["hes177-048"],"isProducer":true}},{"type":"Feature","id":"102","geometry":{"type":"Point","coordinates":[35.86520000000007,37.74490000000003]},"properties":{"OBJECTID":102,"BolgeNo":6,"Il":"ADANA","HavzaAdi":"Seyhan","BarajAdi":"FEKE-2","ILKODU":1,"ILCEKODU":1329,"HAVZA_ID":18,"entityId":"dam177-102","entityType":"dams","id":"dam177-102","name":"FEKE-2","damName":"FEKE-2","basinId":18,"occupancy":null,"status":"no_data","color":"#94a3b8","radius":8,"sourceId":"102","riverName":"Seyhan","hes177":true,"linkedHesIds":["hes177-070"],"isProducer":true}},{"type":"Feature","id":"103","geometry":{"type":"Point","coordinates":[35.480000000000075,37.71028000000007]},"properties":{"OBJECTID":103,"BolgeNo":6,"Il":"ADANA","HavzaAdi":"Seyhan","BarajAdi":"GÖKTAŞ-1","ILKODU":38,"ILCEKODU":1715,"HAVZA_ID":18,"entityId":"dam177-103","entityType":"dams","id":"dam177-103","name":"GÖKTAŞ-1","damName":"GÖKTAŞ-1","basinId":18,"occupancy":null,"status":"no_data","color":"#94a3b8","radius":8,"sourceId":"103","riverName":"Seyhan","hes177":true,"linkedHesIds":["hes177-076"],"isProducer":true}},{"type":"Feature","id":"105","geometry":{"type":"Point","coordinates":[35.52889000000005,37.56278000000003]},"properties":{"OBJECTID":105,"BolgeNo":6,"Il":"ADANA","HavzaAdi":"Seyhan","BarajAdi":"KAVŞAKBENDİ HES","ILKODU":1,"ILCEKODU":1757,"HAVZA_ID":18,"entityId":"dam177-105","entityType":"dams","id":"dam177-105","name":"KAVŞAKBENDİ HES","damName":"KAVŞAKBENDİ HES","basinId":18,"occupancy":null,"status":"no_data","color":"#94a3b8","radius":8,"sourceId":"105","riverName":"Seyhan","hes177":true,"linkedHesIds":["hes177-103"],"isProducer":true}},{"type":"Feature","id":"106","geometry":{"type":"Point","coordinates":[35.613000000000056,37.62080000000003]},"properties":{"OBJECTID":106,"BolgeNo":6,"Il":"ADANA","HavzaAdi":"Seyhan","BarajAdi":"KÖPRÜ","ILKODU":1,"ILCEKODU":1486,"HAVZA_ID":18,"entityId":"dam177-106","entityType":"dams","id":"dam177-106","name":"KÖPRÜ","damName":"KÖPRÜ","basinId":18,"occupancy":null,"status":"no_data","color":"#94a3b8","radius":8,"sourceId":"106","riverName":"Seyhan","hes177":true,"linkedHesIds":["hes177-120"],"isProducer":true}},{"type":"Feature","id":"107","geometry":{"type":"Point","coordinates":[35.734800000000064,37.709700000000055]},"properties":{"OBJECTID":107,"BolgeNo":6,"Il":"ADANA","HavzaAdi":"Seyhan","BarajAdi":"MENGE HES","ILKODU":1,"ILCEKODU":1329,"HAVZA_ID":18,"entityId":"dam177-107","entityType":"dams","id":"dam177-107","name":"MENGE HES","damName":"MENGE HES","basinId":18,"occupancy":null,"status":"no_data","color":"#94a3b8","radius":8,"sourceId":"107","riverName":"Seyhan","hes177":true,"linkedHesIds":["hes177-126"],"isProducer":true}},{"type":"Feature","id":"109","geometry":{"type":"Point","coordinates":[35.34139000000005,37.03695000000005]},"properties":{"OBJECTID":109,"BolgeNo":6,"Il":"ADANA","HavzaAdi":"Seyhan","BarajAdi":"SEYHAN-I","ILKODU":1,"ILCEKODU":1748,"HAVZA_ID":18,"entityId":"dam177-109","entityType":"dams","id":"dam177-109","name":"SEYHAN-I","damName":"SEYHAN-I","basinId":18,"occupancy":null,"status":"no_data","color":"#94a3b8","radius":8,"sourceId":"109","riverName":"Seyhan","hes177":true,"linkedHesIds":["hes177-142"],"isProducer":true}},{"type":"Feature","id":"110","geometry":{"type":"Point","coordinates":[35.487700000000075,37.356700000000046]},"properties":{"OBJECTID":110,"BolgeNo":6,"Il":"ADANA","HavzaAdi":"Seyhan","BarajAdi":"YEDİGÖZE","ILKODU":1,"ILCEKODU":1806,"HAVZA_ID":18,"entityId":"dam177-110","entityType":"dams","id":"dam177-110","name":"YEDİGÖZE","damName":"YEDİGÖZE","basinId":18,"occupancy":null,"status":"no_data","color":"#94a3b8","radius":8,"sourceId":"110","riverName":"Seyhan","hes177":true,"linkedHesIds":["hes177-137"],"isProducer":true}},{"type":"Feature","id":"111","geometry":{"type":"Point","coordinates":[35.987450000000024,36.188090000000045]},"properties":{"OBJECTID":111,"BolgeNo":6,"Il":"HATAY","HavzaAdi":"Asi","BarajAdi":"BÜYÜK KARAÇAY","ILKODU":31,"ILCEKODU":1591,"HAVZA_ID":19,"entityId":"dam177-111","entityType":"dams","id":"dam177-111","name":"BÜYÜK KARAÇAY","damName":"BÜYÜK KARAÇAY","basinId":19,"occupancy":null,"status":"no_data","color":"#94a3b8","radius":8,"sourceId":"111","riverName":null,"hes177":true,"linkedHesIds":["hes177-044"],"isProducer":true}},{"type":"Feature","id":"115","geometry":{"type":"Point","coordinates":[]},"properties":{"OBJECTID":115,"BolgeNo":6,"Il":"İÇEL","HavzaAdi":"Doğu Akdeniz","BarajAdi":"ALAKÖPRÜ","ILKODU":33,"ILCEKODU":null,"HAVZA_ID":17,"entityId":"dam177-115","entityType":"dams","id":"dam177-115","name":"ALAKÖPRÜ","damName":"ALAKÖPRÜ","basinId":17,"occupancy":null,"status":"no_data","color":"#94a3b8","radius":8,"sourceId":"115","riverName":null,"hes177":true,"linkedHesIds":["hes177-008"],"isProducer":true}},{"type":"Feature","id":"116","geometry":{"type":"Point","coordinates":[]},"properties":{"OBJECTID":116,"BolgeNo":6,"Il":"İÇEL","HavzaAdi":"Doğu Akdeniz","BarajAdi":"BERDAN","ILKODU":33,"ILCEKODU":null,"HAVZA_ID":17,"entityId":"dam177-116","entityType":"dams","id":"dam177-116","name":"BERDAN","damName":"BERDAN","basinId":17,"occupancy":null,"status":"no_data","color":"#94a3b8","radius":8,"sourceId":"116","riverName":null,"hes177":true,"linkedHesIds":["hes177-034"],"isProducer":true}},{"type":"Feature","id":"117","geometry":{"type":"Point","coordinates":[36.461550000000045,37.37308000000007]},"properties":{"OBJECTID":117,"BolgeNo":6,"Il":"OSMANİYE","HavzaAdi":"Ceyhan","BarajAdi":"BERKE ","ILKODU":46,"ILCEKODU":1136,"HAVZA_ID":20,"entityId":"dam177-117","entityType":"dams","id":"dam177-117","name":"BERKE ","damName":"BERKE ","basinId":20,"occupancy":null,"status":"no_data","color":"#94a3b8","radius":8,"sourceId":"117","riverName":"Ceyhan","hes177":true,"linkedHesIds":["hes177-035"],"isProducer":true}},{"type":"Feature","id":"119","geometry":{"type":"Point","coordinates":[36.021930000000054,37.50730000000004]},"properties":{"OBJECTID":119,"BolgeNo":6,"Il":"OSMANİYE","HavzaAdi":"Ceyhan","BarajAdi":"MEHMETLİ ( KESİKSUYU )","ILKODU":80,"ILCEKODU":2028,"HAVZA_ID":20,"entityId":"dam177-119","entityType":"dams","id":"dam177-119","name":"MEHMETLİ ( KESİKSUYU )","damName":"MEHMETLİ ( KESİKSUYU )","basinId":20,"occupancy":null,"status":"no_data","color":"#94a3b8","radius":8,"sourceId":"119","riverName":"Ceyhan","hes177":true,"linkedHesIds":["hes177-170"],"isProducer":true}},{"type":"Feature","id":"124","geometry":{"type":"Point","coordinates":[36.304970000000026,40.92700000000008]},"properties":{"OBJECTID":124,"BolgeNo":7,"Il":"AMASYA","HavzaAdi":"Yeşilırmak","BarajAdi":"YAPRAK I BARAJI","ILKODU":5,"ILCEKODU":1668,"HAVZA_ID":14,"entityId":"dam177-124","entityType":"dams","id":"dam177-124","name":"YAPRAK I BARAJI","damName":"YAPRAK I BARAJI","basinId":14,"occupancy":null,"status":"no_data","color":"#94a3b8","radius":8,"sourceId":"124","riverName":"Yeşilırmak","hes177":true,"linkedHesIds":["hes177-172"],"isProducer":true}},{"type":"Feature","id":"126","geometry":{"type":"Point","coordinates":[37.738890000000026,40.60250000000008]},"properties":{"OBJECTID":126,"BolgeNo":7,"Il":"ORDU","HavzaAdi":"Doğu Karadeniz","BarajAdi":"TOPÇAM-ORDU","ILKODU":52,"ILCEKODU":1525,"HAVZA_ID":22,"entityId":"dam177-126","entityType":"dams","id":"dam177-126","name":"TOPÇAM-ORDU","damName":"TOPÇAM-ORDU","basinId":22,"occupancy":null,"status":"no_data","color":"#94a3b8","radius":8,"sourceId":"126","riverName":"Doğu Karadeniz","hes177":true,"linkedHesIds":["hes177-160"],"isProducer":true}},{"type":"Feature","id":"127","geometry":{"type":"Point","coordinates":[36.92900000000003,40.69951000000003]},"properties":{"OBJECTID":127,"BolgeNo":7,"Il":"ORDU","HavzaAdi":"Yeşilırmak","BarajAdi":"UMUT I BARAJI","ILKODU":60,"ILCEKODU":1545,"HAVZA_ID":14,"entityId":"dam177-127","entityType":"dams","id":"dam177-127","name":"UMUT I BARAJI","damName":"UMUT I BARAJI","basinId":14,"occupancy":null,"status":"no_data","color":"#94a3b8","radius":8,"sourceId":"127","riverName":"Yeşilırmak","hes177":true,"linkedHesIds":["hes177-166"],"isProducer":true}},{"type":"Feature","id":"128","geometry":{"type":"Point","coordinates":[35.72393000000005,41.36369000000008]},"properties":{"OBJECTID":128,"BolgeNo":7,"Il":"SAMSUN","HavzaAdi":"Kızılırmak","BarajAdi":"ALTINKAYA","ILKODU":55,"ILCEKODU":1164,"HAVZA_ID":15,"entityId":"dam177-128","entityType":"dams","id":"dam177-128","name":"ALTINKAYA","damName":"ALTINKAYA","basinId":15,"occupancy":null,"status":"no_data","color":"#94a3b8","radius":8,"sourceId":"128","riverName":"Kızılırmak","hes177":true,"linkedHesIds":["hes177-014"],"isProducer":true}},{"type":"Feature","id":"129","geometry":{"type":"Point","coordinates":[35.84174000000007,41.46121000000005]},"properties":{"OBJECTID":129,"BolgeNo":7,"Il":"SAMSUN","HavzaAdi":"Kızılırmak","BarajAdi":"DERBENT","ILKODU":55,"ILCEKODU":1164,"HAVZA_ID":15,"entityId":"dam177-129","entityType":"dams","id":"dam177-129","name":"DERBENT","damName":"DERBENT","basinId":15,"occupancy":null,"status":"no_data","color":"#94a3b8","radius":8,"sourceId":"129","riverName":"Kızılırmak","hes177":true,"linkedHesIds":["hes177-058"],"isProducer":true}},{"type":"Feature","id":"133","geometry":{"type":"Point","coordinates":[36.64676000000003,40.936540000000036]},"properties":{"OBJECTID":133,"BolgeNo":7,"Il":"SAMSUN","HavzaAdi":"Yeşilırmak","BarajAdi":"H.UĞURLU","ILKODU":55,"ILCEKODU":1879,"HAVZA_ID":14,"entityId":"dam177-133","entityType":"dams","id":"dam177-133","name":"H.UĞURLU","damName":"H.UĞURLU","basinId":14,"occupancy":null,"status":"no_data","color":"#94a3b8","radius":8,"sourceId":"133","riverName":"Yeşilırmak","hes177":true,"linkedHesIds":["hes177-083"],"isProducer":true}},{"type":"Feature","id":"134","geometry":{"type":"Point","coordinates":[36.67091000000005,41.074790000000064]},"properties":{"OBJECTID":134,"BolgeNo":7,"Il":"SAMSUN","HavzaAdi":"Yeşilırmak","BarajAdi":"S.UĞURLU","ILKODU":55,"ILCEKODU":1879,"HAVZA_ID":14,"entityId":"dam177-134","entityType":"dams","id":"dam177-134","name":"S.UĞURLU","damName":"S.UĞURLU","basinId":14,"occupancy":null,"status":"no_data","color":"#94a3b8","radius":8,"sourceId":"134","riverName":"Yeşilırmak","hes177":true,"linkedHesIds":["hes177-148"],"isProducer":true}},{"type":"Feature","id":"136","geometry":{"type":"Point","coordinates":[34.995750000000044,41.33471000000003]},"properties":{"OBJECTID":136,"BolgeNo":7,"Il":"SİNOP","HavzaAdi":"Kızılırmak","BarajAdi":"BOYABAT","ILKODU":55,"ILCEKODU":1712,"HAVZA_ID":15,"entityId":"dam177-136","entityType":"dams","id":"dam177-136","name":"BOYABAT","damName":"BOYABAT","basinId":15,"occupancy":null,"status":"no_data","color":"#94a3b8","radius":8,"sourceId":"136","riverName":"Kızılırmak","hes177":true,"linkedHesIds":["hes177-040"],"isProducer":true}},{"type":"Feature","id":"139","geometry":{"type":"Point","coordinates":[36.903230000000065,40.40784000000008]},"properties":{"OBJECTID":139,"BolgeNo":7,"Il":"TOKAT","HavzaAdi":"Yeşilırmak","BarajAdi":"ALMUS","ILKODU":60,"ILCEKODU":1129,"HAVZA_ID":14,"entityId":"dam177-139","entityType":"dams","id":"dam177-139","name":"ALMUS","damName":"ALMUS","basinId":14,"occupancy":null,"status":"no_data","color":"#94a3b8","radius":8,"sourceId":"139","riverName":"Yeşilırmak","hes177":true,"linkedHesIds":["hes177-010"],"isProducer":true}},{"type":"Feature","id":"140","geometry":{"type":"Point","coordinates":[36.88133000000005,40.42512000000005]},"properties":{"OBJECTID":140,"BolgeNo":7,"Il":"TOKAT","HavzaAdi":"Yeşilırmak","BarajAdi":"ATAKÖY","ILKODU":60,"ILCEKODU":1129,"HAVZA_ID":14,"entityId":"dam177-140","entityType":"dams","id":"dam177-140","name":"ATAKÖY","damName":"ATAKÖY","basinId":14,"occupancy":null,"status":"no_data","color":"#94a3b8","radius":8,"sourceId":"140","riverName":"Yeşilırmak","hes177":true,"linkedHesIds":["hes177-024","hes177-118"],"isProducer":true}},{"type":"Feature","id":"145","geometry":{"type":"Point","coordinates":[36.70252000000005,40.66143000000005]},"properties":{"OBJECTID":145,"BolgeNo":7,"Il":"TOKAT","HavzaAdi":"Yeşilırmak","BarajAdi":"TEPEKIŞLA","ILKODU":60,"ILCEKODU":1308,"HAVZA_ID":14,"entityId":"dam177-145","entityType":"dams","id":"dam177-145","name":"TEPEKIŞLA","damName":"TEPEKIŞLA","basinId":14,"occupancy":null,"status":"no_data","color":"#94a3b8","radius":8,"sourceId":"145","riverName":"Yeşilırmak","hes177":true,"linkedHesIds":["hes177-156"],"isProducer":true}},{"type":"Feature","id":"146","geometry":{"type":"Point","coordinates":[35.537780000000055,40.04222000000004]},"properties":{"OBJECTID":146,"BolgeNo":7,"Il":"YOZGAT","HavzaAdi":"Yeşilırmak","BarajAdi":"ÇEKEREK","ILKODU":66,"ILCEKODU":1245,"HAVZA_ID":14,"entityId":"dam177-146","entityType":"dams","id":"dam177-146","name":"ÇEKEREK","damName":"ÇEKEREK","basinId":14,"occupancy":null,"status":"no_data","color":"#94a3b8","radius":8,"sourceId":"146","riverName":"Yeşilırmak","hes177":true,"linkedHesIds":["hes177-050"],"isProducer":true}},{"type":"Feature","id":"169","geometry":{"type":"Point","coordinates":[35.270980000000066,38.90469000000007]},"properties":{"OBJECTID":169,"BolgeNo":12,"Il":"KAYSERİ","HavzaAdi":"Kızılırmak","BarajAdi":"YAMULA","ILKODU":38,"ILCEKODU":1863,"HAVZA_ID":15,"entityId":"dam177-169","entityType":"dams","id":"dam177-169","name":"YAMULA","damName":"YAMULA","basinId":15,"occupancy":null,"status":"no_data","color":"#94a3b8","radius":8,"sourceId":"169","riverName":"Kızılırmak","hes177":true,"linkedHesIds":["hes177-171"],"isProducer":true}},{"type":"Feature","id":"170","geometry":{"type":"Point","coordinates":[36.29083000000003,38.676390000000026]},"properties":{"OBJECTID":170,"BolgeNo":12,"Il":"KAYSERİ","HavzaAdi":"Seyhan","BarajAdi":"BAHÇELİK","ILKODU":38,"ILCEKODU":1576,"HAVZA_ID":18,"entityId":"dam177-170","entityType":"dams","id":"dam177-170","name":"BAHÇELİK","damName":"BAHÇELİK","basinId":18,"occupancy":null,"status":"no_data","color":"#94a3b8","radius":8,"sourceId":"170","riverName":"Seyhan","hes177":true,"linkedHesIds":["hes177-029"],"isProducer":true}},{"type":"Feature","id":"171","geometry":{"type":"Point","coordinates":[35.62442000000004,38.25815000000006]},"properties":{"OBJECTID":171,"BolgeNo":12,"Il":"KAYSERİ","HavzaAdi":"Seyhan","BarajAdi":"GÜMÜŞÖREN","ILKODU":38,"ILCEKODU":1275,"HAVZA_ID":18,"entityId":"dam177-171","entityType":"dams","id":"dam177-171","name":"GÜMÜŞÖREN","damName":"GÜMÜŞÖREN","basinId":18,"occupancy":null,"status":"no_data","color":"#94a3b8","radius":8,"sourceId":"171","riverName":"Seyhan","hes177":true,"linkedHesIds":["hes177-078"],"isProducer":true}},{"type":"Feature","id":"176","geometry":{"type":"Point","coordinates":[34.96735000000007,38.766000000000076]},"properties":{"OBJECTID":176,"BolgeNo":12,"Il":"NEVŞEHİR","HavzaAdi":"Kızılırmak","BarajAdi":"BAYRAMHACILI HES","ILKODU":50,"ILCEKODU":1155,"HAVZA_ID":15,"entityId":"dam177-176","entityType":"dams","id":"dam177-176","name":"BAYRAMHACILI HES","damName":"BAYRAMHACILI HES","basinId":15,"occupancy":null,"status":"no_data","color":"#94a3b8","radius":8,"sourceId":"176","riverName":"Kızılırmak","hes177":true,"linkedHesIds":["hes177-033"],"isProducer":true}},{"type":"Feature","id":"186","geometry":{"type":"Point","coordinates":[]},"properties":{"OBJECTID":186,"BolgeNo":13,"Il":"ANTALYA","HavzaAdi":"Antalya","BarajAdi":"DİM","ILKODU":7,"ILCEKODU":null,"HAVZA_ID":9,"entityId":"dam177-186","entityType":"dams","id":"dam177-186","name":"DİM","damName":"DİM","basinId":9,"occupancy":null,"status":"no_data","color":"#94a3b8","radius":8,"sourceId":"186","riverName":null,"hes177":true,"linkedHesIds":["hes177-062"],"isProducer":true}},{"type":"Feature","id":"187","geometry":{"type":"Point","coordinates":[30.79630000000003,37.26420000000007]},"properties":{"OBJECTID":187,"BolgeNo":13,"Il":"ANTALYA","HavzaAdi":"Antalya","BarajAdi":"KARACAÖREN II","ILKODU":15,"ILCEKODU":1211,"HAVZA_ID":9,"entityId":"dam177-187","entityType":"dams","id":"dam177-187","name":"KARACAÖREN II","damName":"KARACAÖREN II","basinId":9,"occupancy":null,"status":"no_data","color":"#94a3b8","radius":8,"sourceId":"187","riverName":null,"hes177":true,"linkedHesIds":["hes177-091","hes177-092"],"isProducer":true}},{"type":"Feature","id":"189","geometry":{"type":"Point","coordinates":[31.515930000000026,36.83689000000004]},"properties":{"OBJECTID":189,"BolgeNo":13,"Il":"ANTALYA","HavzaAdi":"Antalya","BarajAdi":"MANAVGAT","ILKODU":7,"ILCEKODU":1512,"HAVZA_ID":9,"entityId":"dam177-189","entityType":"dams","id":"dam177-189","name":"MANAVGAT","damName":"MANAVGAT","basinId":9,"occupancy":null,"status":"no_data","color":"#94a3b8","radius":8,"sourceId":"189","riverName":null,"hes177":true,"linkedHesIds":["hes177-124"],"isProducer":true}},{"type":"Feature","id":"191","geometry":{"type":"Point","coordinates":[31.532300000000077,36.908600000000035]},"properties":{"OBJECTID":191,"BolgeNo":13,"Il":"ANTALYA","HavzaAdi":"Antalya","BarajAdi":"OYMAPINAR","ILKODU":7,"ILCEKODU":1512,"HAVZA_ID":9,"entityId":"dam177-191","entityType":"dams","id":"dam177-191","name":"OYMAPINAR","damName":"OYMAPINAR","basinId":9,"occupancy":null,"status":"no_data","color":"#94a3b8","radius":8,"sourceId":"191","riverName":null,"hes177":true,"linkedHesIds":["hes177-133"],"isProducer":true}},{"type":"Feature","id":"210","geometry":{"type":"Point","coordinates":[43.32940000000008,39.121980000000065]},"properties":{"OBJECTID":210,"BolgeNo":17,"Il":"VAN","HavzaAdi":"Van Gölü","BarajAdi":"KOÇKÖPRÜ","ILKODU":65,"ILCEKODU":1309,"HAVZA_ID":25,"entityId":"dam177-210","entityType":"dams","id":"dam177-210","name":"KOÇKÖPRÜ","damName":"KOÇKÖPRÜ","basinId":25,"occupancy":null,"status":"no_data","color":"#94a3b8","radius":8,"sourceId":"210","riverName":null,"hes177":true,"linkedHesIds":["hes177-113"],"isProducer":true}},{"type":"Feature","id":"211","geometry":{"type":"Point","coordinates":[43.636630000000025,39.16211000000004]},"properties":{"OBJECTID":211,"BolgeNo":17,"Il":"VAN","HavzaAdi":"Van Gölü","BarajAdi":"MORGEDİK","ILKODU":65,"ILCEKODU":1309,"HAVZA_ID":25,"entityId":"dam177-211","entityType":"dams","id":"dam177-211","name":"MORGEDİK","damName":"MORGEDİK","basinId":25,"occupancy":null,"status":"no_data","color":"#94a3b8","radius":8,"sourceId":"211","riverName":null,"hes177":true,"linkedHesIds":["hes177-128"],"isProducer":true}},{"type":"Feature","id":"212","geometry":{"type":"Point","coordinates":[43.74338000000006,38.79301000000004]},"properties":{"OBJECTID":212,"BolgeNo":17,"Il":"VAN","HavzaAdi":"Van Gölü","BarajAdi":"SARIMEHMET","ILKODU":65,"ILCEKODU":1533,"HAVZA_ID":25,"entityId":"dam177-212","entityType":"dams","id":"dam177-212","name":"SARIMEHMET","damName":"SARIMEHMET","basinId":25,"occupancy":null,"status":"no_data","color":"#94a3b8","radius":8,"sourceId":"212","riverName":null,"hes177":true,"linkedHesIds":["hes177-139"],"isProducer":true}},{"type":"Feature","id":"213","geometry":{"type":"Point","coordinates":[43.65705000000003,38.35548000000006]},"properties":{"OBJECTID":213,"BolgeNo":17,"Il":"VAN","HavzaAdi":"Van Gölü","BarajAdi":"ZERNEK","ILKODU":65,"ILCEKODU":1372,"HAVZA_ID":25,"entityId":"dam177-213","entityType":"dams","id":"dam177-213","name":"ZERNEK","damName":"ZERNEK","basinId":25,"occupancy":null,"status":"no_data","color":"#94a3b8","radius":8,"sourceId":"213","riverName":null,"hes177":true,"linkedHesIds":["hes177-085"],"isProducer":true}},{"type":"Feature","id":"233","geometry":{"type":"Point","coordinates":[36.378480000000025,39.29711000000003]},"properties":{"OBJECTID":233,"BolgeNo":19,"Il":"SİVAS","HavzaAdi":"Kızılırmak","BarajAdi":"ÇERMİKLER","ILKODU":58,"ILCEKODU":1650,"HAVZA_ID":15,"entityId":"dam177-233","entityType":"dams","id":"dam177-233","name":"ÇERMİKLER","damName":"ÇERMİKLER","basinId":15,"occupancy":null,"status":"no_data","color":"#94a3b8","radius":8,"sourceId":"233","riverName":"Kızılırmak","hes177":true,"linkedHesIds":["hes177-051"],"isProducer":true}},{"type":"Feature","id":"243","geometry":{"type":"Point","coordinates":[38.07583000000005,40.22917000000007]},"properties":{"OBJECTID":243,"BolgeNo":19,"Il":"SİVAS","HavzaAdi":"Yeşilırmak","BarajAdi":"ÇAMLIGÖZE","ILKODU":58,"ILCEKODU":1646,"HAVZA_ID":14,"entityId":"dam177-243","entityType":"dams","id":"dam177-243","name":"ÇAMLIGÖZE","damName":"ÇAMLIGÖZE","basinId":14,"occupancy":null,"status":"no_data","color":"#94a3b8","radius":8,"sourceId":"243","riverName":"Yeşilırmak","hes177":true,"linkedHesIds":["hes177-046"],"isProducer":true}},{"type":"Feature","id":"244","geometry":{"type":"Point","coordinates":[38.62222000000003,40.04472000000004]},"properties":{"OBJECTID":244,"BolgeNo":19,"Il":"SİVAS","HavzaAdi":"Yeşilırmak","BarajAdi":"GÖLOVA","ILKODU":58,"ILCEKODU":1927,"HAVZA_ID":14,"entityId":"dam177-244","entityType":"dams","id":"dam177-244","name":"GÖLOVA","damName":"GÖLOVA","basinId":14,"occupancy":null,"status":"no_data","color":"#94a3b8","radius":8,"sourceId":"244","riverName":"Yeşilırmak","hes177":true,"linkedHesIds":["hes177-150"],"isProducer":true}},{"type":"Feature","id":"245","geometry":{"type":"Point","coordinates":[38.18700000000007,40.24210000000005]},"properties":{"OBJECTID":245,"BolgeNo":19,"Il":"SİVAS","HavzaAdi":"Yeşilırmak","BarajAdi":"KILIÇKAYA","ILKODU":28,"ILCEKODU":1654,"HAVZA_ID":14,"entityId":"dam177-245","entityType":"dams","id":"dam177-245","name":"KILIÇKAYA","damName":"KILIÇKAYA","basinId":14,"occupancy":null,"status":"no_data","color":"#94a3b8","radius":8,"sourceId":"245","riverName":"Yeşilırmak","hes177":true,"linkedHesIds":["hes177-109"],"isProducer":true}},{"type":"Feature","id":"246","geometry":{"type":"Point","coordinates":[36.73953000000006,38.107800000000054]},"properties":{"OBJECTID":246,"BolgeNo":20,"Il":"KAHRAMANMARAŞ","HavzaAdi":"Ceyhan","BarajAdi":"ADATEPE","ILKODU":46,"ILCEKODU":1353,"HAVZA_ID":20,"entityId":"dam177-246","entityType":"dams","id":"dam177-246","name":"ADATEPE","damName":"ADATEPE","basinId":20,"occupancy":null,"status":"no_data","color":"#94a3b8","radius":8,"sourceId":"246","riverName":"Ceyhan","hes177":true,"linkedHesIds":["hes177-001"],"isProducer":true}},{"type":"Feature","id":"248","geometry":{"type":"Point","coordinates":[37.00000000000006,38.00000000000006]},"properties":{"OBJECTID":248,"BolgeNo":20,"Il":"KAHRAMANMARAŞ","HavzaAdi":"Ceyhan","BarajAdi":"KANDİL HES","ILKODU":46,"ILCEKODU":1919,"HAVZA_ID":20,"entityId":"dam177-248","entityType":"dams","id":"dam177-248","name":"KANDİL HES","damName":"KANDİL HES","basinId":20,"occupancy":null,"status":"no_data","color":"#94a3b8","radius":8,"sourceId":"248","riverName":"Ceyhan","hes177":true,"linkedHesIds":["hes177-089"],"isProducer":true}},{"type":"Feature","id":"250","geometry":{"type":"Point","coordinates":[36.803390000000036,37.62661000000003]},"properties":{"OBJECTID":250,"BolgeNo":20,"Il":"KAHRAMANMARAŞ","HavzaAdi":"Ceyhan","BarajAdi":"KILAVUZLU","ILKODU":46,"ILCEKODU":2085,"HAVZA_ID":20,"entityId":"dam177-250","entityType":"dams","id":"dam177-250","name":"KILAVUZLU","damName":"KILAVUZLU","basinId":20,"occupancy":null,"status":"no_data","color":"#94a3b8","radius":8,"sourceId":"250","riverName":"Ceyhan","hes177":true,"linkedHesIds":["hes177-108"],"isProducer":true}},{"type":"Feature","id":"251","geometry":{"type":"Point","coordinates":[36.850400000000036,37.67650000000003]},"properties":{"OBJECTID":251,"BolgeNo":20,"Il":"KAHRAMANMARAŞ","HavzaAdi":"Ceyhan","BarajAdi":"MENZELET","ILKODU":46,"ILCEKODU":2085,"HAVZA_ID":20,"entityId":"dam177-251","entityType":"dams","id":"dam177-251","name":"MENZELET","damName":"MENZELET","basinId":20,"occupancy":null,"status":"no_data","color":"#94a3b8","radius":8,"sourceId":"251","riverName":"Ceyhan","hes177":true,"linkedHesIds":["hes177-127"],"isProducer":true}},{"type":"Feature","id":"252","geometry":{"type":"Point","coordinates":[36.97000000000003,37.933890000000076]},"properties":{"OBJECTID":252,"BolgeNo":20,"Il":"KAHRAMANMARAŞ","HavzaAdi":"Ceyhan","BarajAdi":"SARIGÜZEL HES","ILKODU":46,"ILCEKODU":2085,"HAVZA_ID":20,"entityId":"dam177-252","entityType":"dams","id":"dam177-252","name":"SARIGÜZEL HES","damName":"SARIGÜZEL HES","basinId":20,"occupancy":null,"status":"no_data","color":"#94a3b8","radius":8,"sourceId":"252","riverName":"Ceyhan","hes177":true,"linkedHesIds":["hes177-138"],"isProducer":true}},{"type":"Feature","id":"253","geometry":{"type":"Point","coordinates":[36.59680000000003,37.50100000000003]},"properties":{"OBJECTID":253,"BolgeNo":20,"Il":"KAHRAMANMARAŞ","HavzaAdi":"Ceyhan","BarajAdi":"SIR","ILKODU":46,"ILCEKODU":2085,"HAVZA_ID":20,"entityId":"dam177-253","entityType":"dams","id":"dam177-253","name":"SIR","damName":"SIR","basinId":20,"occupancy":null,"status":"no_data","color":"#94a3b8","radius":8,"sourceId":"253","riverName":"Ceyhan","hes177":true,"linkedHesIds":["hes177-145"],"isProducer":true}},{"type":"Feature","id":"255","geometry":{"type":"Point","coordinates":[28.129940000000033,37.49475000000007]},"properties":{"OBJECTID":255,"BolgeNo":21,"Il":"AYDIN","HavzaAdi":"Büyük Menderes","BarajAdi":"ÇİNE ADNAN MENDERES","ILKODU":9,"ILCEKODU":1256,"HAVZA_ID":7,"entityId":"dam177-255","entityType":"dams","id":"dam177-255","name":"ÇİNE ADNAN MENDERES","damName":"ÇİNE ADNAN MENDERES","basinId":7,"occupancy":null,"status":"no_data","color":"#94a3b8","radius":8,"sourceId":"255","riverName":"Büyük Menderes","hes177":true,"linkedHesIds":["hes177-054"],"isProducer":true}},{"type":"Feature","id":"259","geometry":{"type":"Point","coordinates":[28.52490000000006,37.57204000000007]},"properties":{"OBJECTID":259,"BolgeNo":21,"Il":"AYDIN","HavzaAdi":"Büyük Menderes","BarajAdi":"KEMER","ILKODU":9,"ILCEKODU":1206,"HAVZA_ID":7,"entityId":"dam177-259","entityType":"dams","id":"dam177-259","name":"KEMER","damName":"KEMER","basinId":7,"occupancy":null,"status":"no_data","color":"#94a3b8","radius":8,"sourceId":"259","riverName":"Büyük Menderes","hes177":true,"linkedHesIds":["hes177-106"],"isProducer":true}},{"type":"Feature","id":"263","geometry":{"type":"Point","coordinates":[29.205550000000073,38.15861000000007]},"properties":{"OBJECTID":263,"BolgeNo":21,"Il":"DENİZLİ","HavzaAdi":"Büyük Menderes","BarajAdi":"ADIGÜZEL","ILKODU":20,"ILCEKODU":1371,"HAVZA_ID":7,"entityId":"dam177-263","entityType":"dams","id":"dam177-263","name":"ADIGÜZEL","damName":"ADIGÜZEL","basinId":7,"occupancy":null,"status":"no_data","color":"#94a3b8","radius":8,"sourceId":"263","riverName":"Büyük Menderes","hes177":true,"linkedHesIds":["hes177-003"],"isProducer":true}},{"type":"Feature","id":"264","geometry":{"type":"Point","coordinates":[29.15691000000004,38.13667000000004]},"properties":{"OBJECTID":264,"BolgeNo":21,"Il":"DENİZLİ","HavzaAdi":"Büyük Menderes","BarajAdi":"ADIGÜZEL-2 HES","ILKODU":20,"ILCEKODU":1371,"HAVZA_ID":7,"entityId":"dam177-264","entityType":"dams","id":"dam177-264","name":"ADIGÜZEL-2 HES","damName":"ADIGÜZEL-2 HES","basinId":7,"occupancy":null,"status":"no_data","color":"#94a3b8","radius":8,"sourceId":"264","riverName":"Büyük Menderes","hes177":true,"linkedHesIds":["hes177-002"],"isProducer":true}},{"type":"Feature","id":"266","geometry":{"type":"Point","coordinates":[29.03511000000003,38.115230000000054]},"properties":{"OBJECTID":266,"BolgeNo":21,"Il":"DENİZLİ","HavzaAdi":"Büyük Menderes","BarajAdi":"CİNDERE","ILKODU":20,"ILCEKODU":1371,"HAVZA_ID":7,"entityId":"dam177-266","entityType":"dams","id":"dam177-266","name":"CİNDERE","damName":"CİNDERE","basinId":7,"occupancy":null,"status":"no_data","color":"#94a3b8","radius":8,"sourceId":"266","riverName":"Büyük Menderes","hes177":true,"linkedHesIds":["hes177-045"],"isProducer":true}},{"type":"Feature","id":"270","geometry":{"type":"Point","coordinates":[28.901800000000037,36.898000000000025]},"properties":{"OBJECTID":270,"BolgeNo":21,"Il":"MUĞLA","HavzaAdi":"Batı Akdeniz","BarajAdi":"AKKÖPRÜ","ILKODU":48,"ILCEKODU":1488,"HAVZA_ID":8,"entityId":"dam177-270","entityType":"dams","id":"dam177-270","name":"AKKÖPRÜ","damName":"AKKÖPRÜ","basinId":8,"occupancy":null,"status":"no_data","color":"#94a3b8","radius":8,"sourceId":"270","riverName":null,"hes177":true,"linkedHesIds":["hes177-004"],"isProducer":true}},{"type":"Feature","id":"276","geometry":{"type":"Point","coordinates":[39.09545000000003,40.69314000000003]},"properties":{"OBJECTID":276,"BolgeNo":22,"Il":"GÜMÜŞHANE","HavzaAdi":"Doğu Karadeniz","BarajAdi":"AKKÖY 1","ILKODU":29,"ILCEKODU":1971,"HAVZA_ID":22,"entityId":"dam177-276","entityType":"dams","id":"dam177-276","name":"AKKÖY 1","damName":"AKKÖY 1","basinId":22,"occupancy":null,"status":"no_data","color":"#94a3b8","radius":8,"sourceId":"276","riverName":"Doğu Karadeniz","hes177":true,"linkedHesIds":["hes177-005"],"isProducer":true}},{"type":"Feature","id":"279","geometry":{"type":"Point","coordinates":[]},"properties":{"OBJECTID":279,"BolgeNo":22,"Il":"GÜMÜŞHANE","HavzaAdi":"Doğu Karadeniz","BarajAdi":"KÜRTÜN","ILKODU":29,"ILCEKODU":null,"HAVZA_ID":22,"entityId":"dam177-279","entityType":"dams","id":"dam177-279","name":"KÜRTÜN","damName":"KÜRTÜN","basinId":22,"occupancy":null,"status":"no_data","color":"#94a3b8","radius":8,"sourceId":"279","riverName":"Doğu Karadeniz","hes177":true,"linkedHesIds":["hes177-123"],"isProducer":true}},{"type":"Feature","id":"280","geometry":{"type":"Point","coordinates":[39.23144000000008,40.635380000000055]},"properties":{"OBJECTID":280,"BolgeNo":22,"Il":"GÜMÜŞHANE","HavzaAdi":"Doğu Karadeniz","BarajAdi":"TORUL","ILKODU":29,"ILCEKODU":1684,"HAVZA_ID":22,"entityId":"dam177-280","entityType":"dams","id":"dam177-280","name":"TORUL","damName":"TORUL","basinId":22,"occupancy":null,"status":"no_data","color":"#94a3b8","radius":8,"sourceId":"280","riverName":"Doğu Karadeniz","hes177":true,"linkedHesIds":["hes177-162"],"isProducer":true}},{"type":"Feature","id":"286","geometry":{"type":"Point","coordinates":[32.47200000000004,41.53400000000005]},"properties":{"OBJECTID":286,"BolgeNo":23,"Il":"BARTIN","HavzaAdi":"Batı Karadeniz","BarajAdi":"KİRAZLIKÖPRÜ","ILKODU":74,"ILCEKODU":1172,"HAVZA_ID":13,"entityId":"dam177-286","entityType":"dams","id":"dam177-286","name":"KİRAZLIKÖPRÜ","damName":"KİRAZLIKÖPRÜ","basinId":13,"occupancy":null,"status":"no_data","color":"#94a3b8","radius":8,"sourceId":"286","riverName":"Kızılırmak","hes177":true,"linkedHesIds":["hes177-112"],"isProducer":true}},{"type":"Feature","id":"299","geometry":{"type":"Point","coordinates":[28.21611000000007,39.27195000000006]},"properties":{"OBJECTID":299,"BolgeNo":25,"Il":"BALIKESİR","HavzaAdi":"Susurluk","BarajAdi":"ÇAYGÖREN","ILKODU":10,"ILCEKODU":1619,"HAVZA_ID":3,"entityId":"dam177-299","entityType":"dams","id":"dam177-299","name":"ÇAYGÖREN","damName":"ÇAYGÖREN","basinId":3,"occupancy":null,"status":"no_data","color":"#94a3b8","radius":8,"sourceId":"299","riverName":null,"hes177":true,"linkedHesIds":["hes177-049"],"isProducer":true}},{"type":"Feature","id":"303","geometry":{"type":"Point","coordinates":[26.66721000000007,39.823030000000074]},"properties":{"OBJECTID":303,"BolgeNo":25,"Il":"ÇANAKKALE","HavzaAdi":"Kuzey Ege","BarajAdi":"BAYRAMİÇ","ILKODU":17,"ILCEKODU":1180,"HAVZA_ID":4,"entityId":"dam177-303","entityType":"dams","id":"dam177-303","name":"BAYRAMİÇ","damName":"BAYRAMİÇ","basinId":4,"occupancy":null,"status":"no_data","color":"#94a3b8","radius":8,"sourceId":"303","riverName":null,"hes177":true,"linkedHesIds":["hes177-096"],"isProducer":true}},{"type":"Feature","id":"dam177-inventory-hes177-006","geometry":{"type":"Point","coordinates":[38.9909,40.73784]},"properties":{"id":"dam177-inventory-hes177-006","sourceId":"inventory-hes177-006","entityId":"dam177-inventory-hes177-006","entityType":"dams","name":"AKKÖY2","damName":"AKKÖY2","riverName":"Doğu Karadeniz","basinId":"22","basinName":"Doğu Karadeniz","hes177":true,"linkedHesIds":["hes177-006"],"isProducer":true,"damMatchMethod":"inventory-coordinate"}},{"type":"Feature","id":"dam177-inventory-hes177-017","geometry":{"type":"Point","coordinates":[43.1035,41.2235]},"properties":{"id":"dam177-inventory-hes177-017","sourceId":"inventory-hes177-017","entityId":"dam177-inventory-hes177-017","entityType":"dams","name":"ARDAHAN AKINCI","damName":"ARDAHAN AKINCI","riverName":null,"basinId":"24","basinName":"Aras","hes177":true,"linkedHesIds":["hes177-017"],"isProducer":true,"damMatchMethod":"inventory-coordinate"}},{"type":"Feature","id":"dam177-inventory-hes177-025","geometry":{"type":"Point","coordinates":[38.3175,37.481667]},"properties":{"id":"dam177-inventory-hes177-025","sourceId":"inventory-hes177-025","entityId":"dam177-inventory-hes177-025","entityType":"dams","name":"ATATÜRK","damName":"ATATÜRK","riverName":"Fırat","basinId":"21","basinName":"Fırat-Dicle","hes177":true,"linkedHesIds":["hes177-025"],"isProducer":true,"damMatchMethod":"inventory-coordinate"}},{"type":"Feature","id":"dam177-inventory-hes177-069","geometry":{"type":"Point","coordinates":[29.50089,36.83455]},"properties":{"id":"dam177-inventory-hes177-069","sourceId":"inventory-hes177-069","entityId":"dam177-inventory-hes177-069","entityType":"dams","name":"EŞEN 1","damName":"EŞEN 1","riverName":"Büyük Menderes","basinId":"7","basinName":"Büyük Menderes","hes177":true,"linkedHesIds":["hes177-069"],"isProducer":true,"damMatchMethod":"inventory-coordinate"}},{"type":"Feature","id":"dam177-inventory-hes177-093","geometry":{"type":"Point","coordinates":[39.135556,38.226389]},"properties":{"id":"dam177-inventory-hes177-093","sourceId":"inventory-hes177-093","entityId":"dam177-inventory-hes177-093","entityType":"dams","name":"KARAKAYA","damName":"KARAKAYA","riverName":"Fırat","basinId":"21","basinName":"Fırat-Dicle","hes177":true,"linkedHesIds":["hes177-093"],"isProducer":true,"damMatchMethod":"inventory-coordinate"}},{"type":"Feature","id":"dam177-anchor-590","geometry":{"type":"Point","coordinates":[38.023060000000044,36.86528000000004]},"properties":{"id":"dam177-anchor-590","sourceId":"anchor-590","entityId":"dam177-anchor-590","entityType":"dams","name":"KARKAMIŞ","damName":"KARKAMIŞ","riverName":"Fırat","basinId":"21","hes177":true,"linkedHesIds":["hes177-100"],"isProducer":true,"damMatchMethod":"tatus-anchor"}},{"type":"Feature","id":"dam177-anchor-765","geometry":{"type":"Point","coordinates":[41.83889000000005,37.51583000000005]},"properties":{"id":"dam177-anchor-765","sourceId":"anchor-765","entityId":"dam177-anchor-765","entityType":"dams","name":"ILISU BRJ","damName":"ILISU BRJ","riverName":"Dicle","basinId":"21","hes177":true,"linkedHesIds":["hes177-086"],"isProducer":true,"damMatchMethod":"tatus-anchor"}},{"type":"Feature","id":"dam177-anchor-766","geometry":{"type":"Point","coordinates":[41.83889000000005,37.51583000000005]},"properties":{"id":"dam177-anchor-766","sourceId":"anchor-766","entityId":"dam177-anchor-766","entityType":"dams","name":"ILISU BRJ","damName":"ILISU BRJ","riverName":"Dicle","basinId":"21","hes177":true,"linkedHesIds":["hes177-086"],"isProducer":true,"damMatchMethod":"tatus-anchor"}},{"type":"Feature","id":"dam177-anchor-939","geometry":{"type":"Point","coordinates":[38.72805000000005,38.80278000000004]},"properties":{"id":"dam177-anchor-939","sourceId":"anchor-939","entityId":"dam177-anchor-939","entityType":"dams","name":"KEBAN","damName":"KEBAN","riverName":"Fırat","basinId":"21","hes177":true,"linkedHesIds":["hes177-105"],"isProducer":true,"damMatchMethod":"tatus-anchor"}},{"type":"Feature","id":"dam177-anchor-1181","geometry":{"type":"Point","coordinates":[34.55194000000006,38.77889000000005]},"properties":{"id":"dam177-anchor-1181","sourceId":"anchor-1181","entityId":"dam177-anchor-1181","entityType":"dams","name":"TUZKÖYHES CANSUYU","damName":"TUZKÖYHES CANSUYU","riverName":"Kızılırmak","basinId":"15","hes177":true,"linkedHesIds":[],"isProducer":true,"damMatchMethod":"tatus-anchor"}},{"type":"Feature","id":"dam177-anchor-1330","geometry":{"type":"Point","coordinates":[38.565000000000055,39.47639000000004]},"properties":{"id":"dam177-anchor-1330","sourceId":"anchor-1330","entityId":"dam177-anchor-1330","entityType":"dams","name":"BAĞIŞTAŞ-2 BARAJ VE HES CANSUYU","damName":"BAĞIŞTAŞ-2 BARAJ VE HES CANSUYU","riverName":"Fırat","basinId":"21","hes177":true,"linkedHesIds":[],"isProducer":true,"damMatchMethod":"tatus-anchor"}}]}